{
  "version": 0.6,
  "generator": "Overpass API 0.7.62.10 2d4cfc48",
  "osm3s": {
    "timestamp_osm_base": "2026-01-31T22:13:15Z",
    "copyright": "The data included in this document is from www.openstreetmap.org. The data is made available under ODbL."
  },
  "elements": [

{
  "type": "node",
  "id": 348237703,
  "lat": 23.6940663,
  "lon": -15.9431274,
  "tags": {
    "capital": "4",
    "check_date": "2024-12-01",
    "name": "Dakhla ⴷⴷⴰⵅⵍⴰ الداخلة",
    "name:ar": "الداخلة",
    "name:bg": "Дахла",
    "name:ca": "Dakhla",
    "name:cs": "Dachla",
    "name:cy": "Dakhla",
    "name:da": "Dakhla",
    "name:de": "Ad-Dakhla",
    "name:el": "Ντάχλα",
    "name:en": "Dakhla",
    "name:eo": "Daĥlo",
    "name:es": "Dajla",
    "name:et": "Ed Dâkhla",
    "name:eu": "Dakhla",
    "name:fa": "داخله",
    "name:fi": "Dakhla",
    "name:fr": "Dakhla",
    "name:gl": "Dakhla",
    "name:he": "דאח'לה",
    "name:hu": "Dakhla",
    "name:io": "Dakhla",
    "name:it": "Dakhla",
    "name:ja": "ダフラ",
    "name:kab": "Ddaxla",
    "name:ko": "다클라",
    "name:la": "Cisneropolis",
    "name:lt": "Dahla",
    "name:lv": "Dahla",
    "name:ml": "ദാക്കല",
    "name:ms": "Dakhla",
    "name:nl": "Dakhla",
    "name:pl": "Ad-Dachla",
    "name:pt": "Dakhla",
    "name:ru": "Дахла",
    "name:sk": "Dachla",
    "name:sr": "Дахла",
    "name:sv": "Al-Dakhla",
    "name:tr": "Dahile",
    "name:uk": "Дахла",
    "name:ur": "داخلہ",
    "name:zgh": "ⴷⴷⴰⵅⵍⴰ",
    "name:zh": "达赫拉",
    "old_name": "Villa Cisneros",
    "old_name:es": "Villa Cisneros",
    "place": "city",
    "population": "165463",
    "population:date": "2024",
    "source:population": "Haut-Commissariat au Plan",
    "wikidata": "Q345204",
    "wikimedia_commons": "Category:Dakhla",
    "wikipedia": "es:Villa Cisneros"
  }
},
{
  "type": "node",
  "id": 354601576,
  "lat": 22.6777611,
  "lon": -12.7118856,
  "tags": {
    "GNS:dsg_code": "PPL",
    "GNS:dsg_name": "populated place",
    "GNS:id": "-1400726",
    "GNS:modify_date": "2010-10-14",
    "alt_name": "فور غورو;فورة غورأد;فورت غورو",
    "alt_name:ar": "فور غورو;فورة غورأد;فورت غورو",
    "alt_name:en": "Fderik;Fdérick;Fderick;Fdeirek;Fort Gouraud;Idjil;Fort Trinquet;Fort Goureaud;Fdérik",
    "name": "F'Derick افديرك",
    "name:ar": "افديرك",
    "name:azb": "افدیرک",
    "name:en": "Fderîck",
    "name:es": "F'dérik",
    "name:fa": "افدیرک",
    "name:fr": "F'Derick",
    "name:he": "פדריק",
    "name:ru": "Фдерик",
    "name:uk": "Фдерик",
    "place": "town",
    "wikidata": "Q113034",
    "wikipedia": "ar:افديرك",
    "wikipedia:ar": "افديرك"
  }
},
{
  "type": "node",
  "id": 354872619,
  "lat": 22.7402065,
  "lon": -12.4664916,
  "tags": {
    "GNS:dsg_code": "PPLA",
    "GNS:dsg_name": "populated place",
    "GNS:id": "-1404800",
    "GNS:modify_date": "2015-12-09",
    "alt_name": "Zouérate;Zouerat;Zouîrât;Zouirat;Zoueïratt;Zoueiratt;Zouerate",
    "alt_name:ar": "أزويرات;ازويرات",
    "alt_name:en": "الزويرات",
    "capital": "4",
    "name": "Zouérate الزويرات",
    "name:ar": "الزويرات",
    "name:ber": "ⵣⵡⵉⵔⴰⵜ",
    "name:de": "Zouérat",
    "name:en": "Zouérat",
    "name:es": "Zuérate",
    "name:fr": "Zouérate",
    "name:he": "זואראת",
    "name:kab": "Zwerat",
    "name:pl": "Zuwirat",
    "name:ru": "Зуэрат",
    "name:zgh": "ⵣⵡⵉⵔⴰⵜ",
    "name:zh": "祖埃拉特",
    "note": "rank = 0 + City car Préfecture",
    "place": "city",
    "rank": "0",
    "wikidata": "Q227072",
    "wikipedia": "ar:الزويرات",
    "wikipedia:es": "Zuérate"
  }
},
{
  "type": "node",
  "id": 569755163,
  "lat": 26.7435827,
  "lon": -11.6645492,
  "tags": {
    "capital": "5",
    "name": "Es-Semara ⵙⵎⴰⵔⴰ السمارة",
    "name:ar": "السمارة",
    "name:ber": "ⵙⵎⴰⵔⴰ",
    "name:de": "Esmara",
    "name:en": "Smara",
    "name:es": "Esmara",
    "name:fa": "سماره",
    "name:fr": "Es-Semara",
    "name:he": "סמארה",
    "name:ko": "스마라",
    "name:ru": "Смара",
    "name:zgh": "ⵙⵎⴰⵔⴰ",
    "name:zh": "斯马拉",
    "place": "city",
    "population": "57035",
    "population:date": "2014",
    "wikidata": "Q842810",
    "wikimedia_commons": "Category:Smara",
    "wikipedia": "ar:السمارة (المغرب)",
    "wikipedia:es": "Esmara"
  }
},
{
  "type": "node",
  "id": 698705433,
  "lat": 27.6719820,
  "lon": -12.9563250,
  "tags": {
    "capital": "7",
    "name": "Tah ⵟⴰⵄ طاح",
    "name:ar": "طاح",
    "name:ber": "ⵟⴰⵄ",
    "name:en": "Tah",
    "name:es": "Tah",
    "name:fr": "Tah",
    "name:zgh": "ⵟⴰⵄ",
    "place": "village",
    "wikidata": "Q2388243",
    "wikipedia": "ar:طاح",
    "wikipedia:ar": "طاح"
  }
},
{
  "type": "node",
  "id": 698803757,
  "lat": 27.1767990,
  "lon": -13.3925657,
  "tags": {
    "capital": "7",
    "name": "Foum El Oued ⴼⵓⵎ ⵍⵡⴰⴷ فم الواد",
    "name:ar": "فم الواد",
    "name:ber": "ⴼⵓⵎ ⵍⵡⴰⴷ",
    "name:en": "Foum El Oued",
    "name:es": "Fum el Uad",
    "name:fr": "Foum El Oued",
    "name:zgh": "ⴼⵓⵎ ⵍⵡⴰⴷ",
    "place": "village",
    "postal_code": "70022",
    "wikidata": "Q25454472",
    "wikipedia": "ar:فم الواد"
  }
},
{
  "type": "node",
  "id": 702231247,
  "lat": 26.3575997,
  "lon": -12.8443515,
  "tags": {
    "alt_name:ar": "أبو كراع;أبوكراع;بو كراع",
    "capital": "7",
    "name": "Boukraa ⴱⵓⴽⵔⴰⵄ بوكراع",
    "name:ar": "بوكراع",
    "name:ber": "ⴱⵓⴽⵔⴰⵄ",
    "name:en": "Boucraa",
    "name:es": "Bucraa",
    "name:fr": "Boukraa",
    "name:kab": "Bukraɛ",
    "name:zgh": "ⴱⵓⴽⵔⴰⵄ",
    "name:zh": "布克拉",
    "place": "village",
    "wikidata": "Q894941",
    "wikimedia_commons": "Category:Bu Craa",
    "wikipedia": "ar:بوكراع"
  }
},
{
  "type": "node",
  "id": 702232770,
  "lat": 25.1488480,
  "lon": -12.3694610,
  "tags": {
    "capital": "7",
    "name": "Gueltat Zemmour ⴳⵓⵍⵜⴰⵜ ⵣⵎⵎⵓⵔ كلتة زمور",
    "name:ar": "كلتة زمور",
    "name:ber": "ⴳⵓⵍⵜⴰⵜ ⵣⵎⵎⵓⵔ",
    "name:en": "Guelta Zemmur",
    "name:es": "El Guelta",
    "name:fr": "Gueltat Zemmour",
    "name:zgh": "ⴳⵓⵍⵜⴰⵜ ⵣⵎⵎⵓⵔ",
    "name:zh": "盖勒塔宰穆尔",
    "place": "village",
    "wikidata": "Q1380087",
    "wikipedia": "ar:كلتة زمور",
    "wikipedia:ar": "كلتة زمور"
  }
},
{
  "type": "node",
  "id": 878851850,
  "lat": 27.4137251,
  "lon": -9.0496748,
  "tags": {
    "capital": "7",
    "name": "Al Mahbass ⵍⵎⵃⴱⵙ المحبس",
    "name:ar": "المحبس",
    "name:ber": "ⵍⵎⵃⴱⵙ",
    "name:en": "Al Mahbass",
    "name:es": "Mahbes",
    "name:fr": "Al Mahbass",
    "name:zgh": "ⵍⵎⵃⴱⵙ",
    "place": "village"
  }
},
{
  "type": "node",
  "id": 1233002614,
  "lat": 26.8380816,
  "lon": -11.9231290,
  "tags": {
    "addr:city": "سيدي أحمد العروسي",
    "name": "Sidi Ahmed Laâroussi ⵙⵉⴷⵉ ⵃⵎⴷ ⵍⵄⵕⵓⵙⵉ سيدي أحمد العروسي",
    "name:ar": "سيدي أحمد العروسي",
    "name:ber": "ⵙⵉⴷⵉ ⵃⵎⴷ ⵍⵄⵕⵓⵙⵉ",
    "name:en": "Sidi Ahmed Laâroussi",
    "name:es": "Sidi Ahmed Laarosi",
    "name:fr": "Sidi Ahmed Laâroussi",
    "name:zgh": "ⵙⵉⴷⵉ ⵃⵎⴷ ⵍⵄⵕⵓⵙⵉ",
    "name:zh": "西迪艾哈迈德拉鲁西",
    "place": "village",
    "wikidata": "Q27534267",
    "wikipedia": "ar:سيدي أحمد العروسي"
  }
},
{
  "type": "node",
  "id": 1623947997,
  "lat": 22.5670000,
  "lon": -14.3129060,
  "tags": {
    "capital": "5",
    "name": "Aousserd ⴰⵡⵙⴰⵔⴷ أوسرد",
    "name:ar": "أوسرد",
    "name:az-Arab": "أوسرد",
    "name:azb": "أوسرد",
    "name:ber": "ⴰⵡⵙⴰⵔⴷ",
    "name:de": "Auserd",
    "name:en": "Aousserd",
    "name:es": "Auserd",
    "name:fa": "أوسرد",
    "name:fr": "Aousserd",
    "name:it": "Auserd",
    "name:zgh": "ⴰⵡⵙⴰⵔⴷ",
    "name:zh": "奥塞尔德",
    "place": "town",
    "postal_code": "74002",
    "wikidata": "Q2026640",
    "wikipedia": "ar:أوسرد",
    "wikipedia:ar": "أوسرد",
    "wikipedia:es": "Auserd"
  }
},
{
  "type": "node",
  "id": 1829716252,
  "lat": 23.6337423,
  "lon": -15.9905415,
  "tags": {
    "addr:city": "لاساركا",
    "alt_name:ar": "قرية الصيد لاساركا",
    "alt_name:fr": "Village de pêche de Lassarga",
    "name": "Lassarga ⵍⴰⵙⴰⵔⴳⴰ لاساركا",
    "name:ar": "لاساركا",
    "name:ber": "ⵍⴰⵙⴰⵔⴳⴰ",
    "name:de": "Lasarka",
    "name:en": "Lasarka",
    "name:es": "La Sarga",
    "name:fr": "Lassarga",
    "name:zgh": "ⵍⴰⵙⴰⵔⴳⴰ",
    "place": "village",
    "wikidata": "Q63111310",
    "wikipedia": "ar:لاساركا"
  }
},
{
  "type": "node",
  "id": 1888261495,
  "lat": 27.1545120,
  "lon": -13.1953921,
  "tags": {
    "capital": "4",
    "check_date": "2024-12-01",
    "name": "Laâyoune ⵍⵄⵢⵓⵏ العيون",
    "name:af": "Laâyoune",
    "name:an": "L'Aaiún",
    "name:ar": "العيون",
    "name:ast": "L'Aaiún",
    "name:az": "Əl-Əyun",
    "name:be": "Эль-Аюн",
    "name:ber": "ⵍⵄⵢⵓⵏ",
    "name:bg": "Аюн",
    "name:bn": "লা-আয়ুন",
    "name:br": "El Aaiún",
    "name:ca": "Al-Aaiun",
    "name:cs": "Al-’Ajún",
    "name:cy": "El Aaiún",
    "name:da": "El Aaiún",
    "name:de": "El Aaiún",
    "name:el": "Λααγιούν",
    "name:en": "Laayoune",
    "name:eo": "Ajuno",
    "name:es": "El Aaiún",
    "name:et": "El Aaiún",
    "name:eu": "Aaiun",
    "name:fa": "العیون",
    "name:fi": "El Aaiún",
    "name:fr": "Laâyoune",
    "name:fy": "El-Ajûn",
    "name:gd": "El Aaiún",
    "name:gl": "O Aaiún",
    "name:ha": "Laayoune",
    "name:he": "לעיון",
    "name:hr": "El Aaiún",
    "name:hu": "El-Ajún",
    "name:hy": "Էլ Այուն",
    "name:ia": "El Aaiún",
    "name:id": "El Aaiún",
    "name:ie": "El Aaiún",
    "name:io": "Laayoune",
    "name:is": "Laâyoune",
    "name:it": "El Aaiún",
    "name:ja": "アイウン",
    "name:ka": "ელ-აიუნი",
    "name:kab": "Laɛyun",
    "name:kk": "Эль-Аюн",
    "name:ko": "엘아이운",
    "name:ky": "Эль-Аюн",
    "name:lb": "Ajun",
    "name:lt": "Al Ajunas",
    "name:lv": "Ajūna",
    "name:mg": "El Aaiún",
    "name:mk": "Ел-Ајун",
    "name:ml": "അൽ-ആയൂൺ",
    "name:ms": "El Aaiún",
    "name:nb": "El Aaiún",
    "name:nl": "Al Ajoen",
    "name:nn": "El Aaiún",
    "name:oc": "Al Aaiun",
    "name:pl": "Al-Ujun",
    "name:pt": "El Aiune",
    "name:ro": "El Aaiún",
    "name:ru": "Эль-Аюн",
    "name:sc": "El Aaiún",
    "name:sk": "El-Aaiún",
    "name:sl": "Laayoune",
    "name:sr": "Ел Ајун",
    "name:sv": "Al-Ayun",
    "name:sw": "El Aaiún",
    "name:ta": "அல்-உயூன்",
    "name:th": "เอลอาอายุน",
    "name:tr": "Layun",
    "name:uk": "Ель-Аюн",
    "name:ur": "العیون",
    "name:uz": "Aayyun",
    "name:vi": "Laayoune",
    "name:zgh": "ⵍⵄⵢⵓⵏ",
    "name:zh": "阿尤恩",
    "name:zh-Hant-TW": "阿尤恩",
    "place": "city",
    "population": "262791",
    "population:date": "2024",
    "source:population": "Haut-Commissariat au Plan",
    "wikidata": "Q47837",
    "wikimedia_commons": "Category:El Aaiún",
    "wikipedia": "fr:Laâyoune"
  }
},
{
  "type": "node",
  "id": 1929392335,
  "lat": 22.1795707,
  "lon": -14.5043406,
  "tags": {
    "place": "village"
  }
},
{
  "type": "node",
  "id": 1929403710,
  "lat": 21.6347955,
  "lon": -14.8938895,
  "tags": {
    "capital": "7",
    "name": "Tichla ⵜⵉⵛⵍⴰ تشلا",
    "name:ar": "تشلا",
    "name:ber": "ⵜⵉⵛⵍⴰ",
    "name:en": "Tichla",
    "name:es": "Tichla",
    "name:fr": "Tichla",
    "name:zgh": "ⵜⵉⵛⵍⴰ",
    "name:zh": "蒂奇拉",
    "place": "town",
    "wikidata": "Q3991171",
    "wikipedia": "ar:تشلا"
  }
},
{
  "type": "node",
  "id": 1934453786,
  "lat": 25.2311431,
  "lon": -11.5810134,
  "tags": {
    "GNS:dsg_code": "PPL",
    "GNS:dsg_name": "populated place",
    "GNS:id": "-1399361",
    "GNS:modify_date": "2010-06-23",
    "alt_name": "بئر مغرين;بير مغرين;بير ام اكرين;بر أمّ غرإن",
    "alt_name:ar": "بئر مغرين;بير مغرين;بير ام اكرين;بر أمّ غرإن",
    "alt_name:en": "Bir Mogrein;Bir Umm Grain;Bir Oum Greïne;Bir Oum Greine;Bir Oum Grein;Bir Oum el Grein;Bir Moghrin;Bir Moghreïne;Bir Moghreine;Bir Moghrein;Bir Moghreim;Bir el Moghreïn;Bir el Moghrein;Bîr Moghreïn;Bir Morhrein;Fort-Trinquet;Bîr Mogreïn",
    "name": "Bir Moghreïn بئر أم قرين",
    "name:ar": "بئر أم قرين",
    "name:en": "Bir Moghrein",
    "name:fr": "Bir Moghreïn",
    "name:he": "ביר מוגריין",
    "name:ru": "Бир-Могрейн",
    "place": "town",
    "wikidata": "Q94910",
    "wikipedia": "ar:بير مغرين",
    "wikipedia:ar": "بير مغرين"
  }
},
{
  "type": "node",
  "id": 2000314674,
  "lat": 26.3493720,
  "lon": -9.5765100,
  "tags": {
    "alt_name": "بئر لحلو;بير لحلو;البئر الحلو",
    "alt_name:ar": "بئر لحلو;بير لحلو;البئر الحلو",
    "name": "بئر لحلو Bir Lehlu",
    "name:ar": "بئر الحلوة",
    "name:azb": "بئر لحلو",
    "name:ber": "ⴱⵉⵔ ⵍⵃⵍⵓ",
    "name:de": "Bi'r al-Hulwa",
    "name:en": "Bir Lehlou",
    "name:es": "Bir Lehlu",
    "name:fa": "بئر لحلو",
    "name:fr": "Bir Lehlou",
    "name:he": "ביר להלו",
    "name:hu": "Bir Lehlou",
    "name:ru": "Бир-Лелу",
    "name:uk": "Бір-Лелу",
    "name:zgh": "ⴱⵉⵔ ⵍⵃⵍⵓ",
    "name:zh": "比鄂-雷楼",
    "place": "town",
    "wikidata": "Q614754",
    "wikimedia_commons": "Category:Bir Lehlou",
    "wikipedia": "ar:بئر لحلو"
  }
},
{
  "type": "node",
  "id": 2090045902,
  "lat": 26.1263378,
  "lon": -14.4836537,
  "tags": {
    "alt_name": "Cap Boujdour",
    "capital": "5",
    "int_name": "Boujdour",
    "name": "Boujdour ⴱⵓⵊⴷⵓⵔ بوجدور",
    "name:ar": "بوجدور",
    "name:ber": "ⴱⵓⵊⴷⵓⵔ",
    "name:bg": "Бужадур",
    "name:ca": "Bojador",
    "name:cs": "Búdždúr",
    "name:de": "Boujdour",
    "name:en": "Boujdour",
    "name:es": "Cabo Bojador",
    "name:et": "Boujdour",
    "name:eu": "Bojador",
    "name:fa": "بوجدور",
    "name:fr": "Boujdour",
    "name:he": "בוז'דור",
    "name:it": "Boujdour",
    "name:ml": "ബൂജദൂർ",
    "name:ms": "Boujdour",
    "name:nl": "Boujdour",
    "name:pl": "Budżdur",
    "name:pt": "Bojador",
    "name:ru": "Буждур",
    "name:sv": "Bujur",
    "name:tr": "Boujdour",
    "name:ur": "بوجدور",
    "name:zgh": "ⴱⵓⵊⴷⵓⵔ",
    "name:zh": "布支杜爾",
    "old_name": "Cabo Bojador",
    "place": "city",
    "population": "42651",
    "population:date": "2014",
    "wikidata": "Q599897",
    "wikimedia_commons": "Category:Bojador",
    "wikipedia": "ar:بوجدور"
  }
},
{
  "type": "node",
  "id": 2152593371,
  "lat": 21.6137290,
  "lon": -16.4710690,
  "tags": {
    "capital": "6",
    "name": "Bir Gandouz ⴱⵉⵔ ⴳⴰⵏⴷⵓⵣ بئر كندوز",
    "name:ar": "بئر كندوز",
    "name:azb": "بئر کندوز",
    "name:ber": "ⴱⵉⵔ ⴳⴰⵏⴷⵓⵣ",
    "name:en": "Bir Gandus",
    "name:es": "Bir Gandús",
    "name:fa": "بئر کندوز",
    "name:fr": "Bir Gandouz",
    "name:he": "ביר גנדוז",
    "name:zgh": "ⴱⵉⵔ ⴳⴰⵏⴷⵓⵣ",
    "name:zh": "比尔甘杜夫",
    "place": "village",
    "postal_code": "74004",
    "wikidata": "Q16964599",
    "wikipedia": "ar:بئر كندوز"
  }
},
{
  "type": "node",
  "id": 2191416486,
  "lat": 24.9095884,
  "lon": -14.8271110,
  "tags": {
    "capital": "6",
    "int_name": "Jraifia",
    "name": "Jraifia ⵊⵔⴰⵢⴼⵉⵢⴰ الجريفية",
    "name:ar": "الجريفية",
    "name:ber": "ⵊⵔⴰⵢⴼⵉⵢⴰ",
    "name:en": "Jraifia",
    "name:fr": "Jraifia",
    "name:zgh": "ⵊⵔⴰⵢⴼⵉⵢⴰ",
    "place": "village"
  }
},
{
  "type": "node",
  "id": 2191422595,
  "lat": 27.0929902,
  "lon": -13.4092408,
  "tags": {
    "capital": "6",
    "name": "El Marsa ⵍⵎⴰⵔⵙⴰ المرسى",
    "name:ar": "المرسى",
    "name:ary": "لمرصى",
    "name:ber": "ⵍⵎⴰⵔⵙⴰ",
    "name:bg": "Марса",
    "name:ca": "El Marsa",
    "name:de": "El Marsa",
    "name:en": "El Marsa",
    "name:es": "El Marsa",
    "name:fa": "المرسی",
    "name:fr": "El Marsa",
    "name:pl": "Al-Marsa",
    "name:pt": "El Marsa",
    "name:ru": "Эль-Марса",
    "name:sv": "Al-Marsa",
    "name:zgh": "ⵍⵎⴰⵔⵙⴰ",
    "name:zh": "艾尔马萨尔",
    "place": "town",
    "postal_code": "70002",
    "wikidata": "Q3544425",
    "wikimedia_commons": "Category:El Marsa (Western Sahara)",
    "wikipedia": "es:El Marsa (Sáhara)"
  }
},
{
  "type": "node",
  "id": 2191422596,
  "lat": 27.0281512,
  "lon": -13.0519873,
  "tags": {
    "capital": "7",
    "name": "Dcheira ⴷⵛⵉⵔⴰ الدشيرة",
    "name:ar": "الدشيرة",
    "name:ber": "ⴷⵛⵉⵔⴰ",
    "name:en": "Dcheira",
    "name:es": "Edchera",
    "name:fr": "Dcheira",
    "name:zgh": "ⴷⵛⵉⵔⴰ",
    "name:zh": "埃德切拉",
    "place": "village",
    "postal_code": "70023"
  }
},
{
  "type": "node",
  "id": 2191424212,
  "lat": 27.4637370,
  "lon": -12.9911560,
  "tags": {
    "alt_name:es": "Dora",
    "capital": "6",
    "name": "Daoura ⴷⴰⵡⵔⴰ الدورة",
    "name:ar": "الدورة",
    "name:ber": "ⴷⴰⵡⵔⴰ",
    "name:en": "Daoura",
    "name:es": "Daora",
    "name:fr": "Daoura",
    "name:zgh": "ⴷⴰⵡⵔⴰ",
    "name:zh": "道拉",
    "place": "village",
    "population": "878",
    "population:date": "2004",
    "postal_code": "70072",
    "wikidata": "Q1165464",
    "wikipedia": "ar:دورة (المغرب)"
  }
},
{
  "type": "node",
  "id": 2191478654,
  "lat": 23.5591540,
  "lon": -15.8994110,
  "tags": {
    "capital": "7",
    "name": "El Argoub ⵄⴰⵔⴳⵓⴱ العركوب",
    "name:ar": "العركوب",
    "name:ber": "ⵄⴰⵔⴳⵓⴱ",
    "name:en": "El Argoub",
    "name:es": "El Aargub",
    "name:fr": "El Argoub",
    "name:zgh": "ⵄⴰⵔⴳⵓⴱ",
    "name:zh": "阿尔古卜",
    "place": "village",
    "wikidata": "Q259477",
    "wikipedia": "ar:العركوب (المغرب)"
  }
},
{
  "type": "node",
  "id": 2420942706,
  "lat": 26.0342605,
  "lon": -10.4957612,
  "tags": {
    "alt_name:ar": "بير تيغیسیت",
    "alt_name:fr": "Bir Tighissit;Bir Tighessit",
    "name": "بئر تيغیسیت Bir Tiguisit",
    "name:ar": "بئر تيغیسیت",
    "name:arz": "بئر تيجیسیت",
    "name:ber": "ⴱⵉⵔ ⵜⵉⵖⵉⵙⵙⵉⵜ",
    "name:de": "Bir Tiguisit",
    "name:en": "Bir Tiguisit",
    "name:es": "Bir Tiguisit",
    "name:fa": "بیر تیغیسیت",
    "name:fr": "Bir Tiguisit",
    "name:zgh": "ⴱⵉⵔ ⵜⵉⵖⵉⵙⵙⵉⵜ",
    "place": "village",
    "wikidata": "Q20013507",
    "wikipedia": "en:Bir Tiguisit"
  }
},
{
  "type": "node",
  "id": 2420942708,
  "lat": 26.1595040,
  "lon": -10.5589910,
  "tags": {
    "addr:city": "تفاريتي",
    "alt_name": "تيفاريتي",
    "alt_name:ar": "تيفاريتي",
    "capital": "7",
    "name": "تفاريتي Tifariti",
    "name:ar": "تفاريتي",
    "name:azb": "تیفاریتی",
    "name:ber": "ⵜⵉⴼⴰⵔⵉⵜⵉ",
    "name:ca": "Tifariti",
    "name:ckb": "تیفاریتی",
    "name:de": "Tifariti",
    "name:en": "Tifariti",
    "name:es": "Tifariti",
    "name:fa": "تیفاریتی",
    "name:fr": "Tifariti",
    "name:he": "טיפריטי",
    "name:ks": "تیفاریتی",
    "name:pl": "Tifariti",
    "name:uk": "Тіфариті",
    "name:ur": "تیفاریتی",
    "name:zgh": "ⵜⵉⴼⴰⵔⵉⵜⵉ",
    "name:zh": "提法里提",
    "place": "town",
    "population": "3000",
    "population:date": "2010",
    "wikidata": "Q2360337",
    "wikimedia_commons": "Category:Tifariti",
    "wikipedia": "ar:تفاريتي"
  }
},
{
  "type": "node",
  "id": 2565929770,
  "lat": 21.1915160,
  "lon": -14.0274606,
  "tags": {
    "place": "village"
  }
},
{
  "type": "node",
  "id": 2565929771,
  "lat": 21.2378427,
  "lon": -14.3918118,
  "tags": {
    "name": "Tmeimichat اتميمشات",
    "name:ar": "اتميمشات",
    "name:de": "Tmeimitschatt",
    "name:en": "Tmeimichat",
    "name:fr": "Tmeimichat",
    "place": "village",
    "source": "Bing"
  }
},
{
  "type": "node",
  "id": 2565929774,
  "lat": 21.1994595,
  "lon": -13.6758903,
  "tags": {
    "name": "Ben Amera بن أميرة",
    "name:ar": "بن أميرة",
    "name:de": "Ben Amera",
    "name:en": "Ben Amera",
    "name:fr": "Ben Amera",
    "place": "village"
  }
},
{
  "type": "node",
  "id": 2577187734,
  "lat": 21.2915379,
  "lon": -16.5238224,
  "tags": {
    "GNS:dsg_code": "PPL",
    "GNS:dsg_name": "populated place",
    "GNS:id": "9159807",
    "GNS:modify_date": "2010-04-05",
    "alt_name": "بو انوار;بولنوأر",
    "alt_name:ar": "بو انوار;بولنوأر",
    "alt_name:fr": "Bou Lanouar;Boulanouar;Boû Lanouâr;Boulanoir;Bou Lenouar",
    "name": "Boulenouar بولنوار",
    "name:ar": "بولنوار",
    "name:de": "Boulenouar",
    "name:en": "Boulenouar",
    "name:eo": "Bulnuar",
    "name:fr": "Boulenouar",
    "name:ms": "Boulenoir",
    "name:ro": "Boulenouar",
    "place": "town",
    "rank": "0",
    "wikidata": "Q740291",
    "wikipedia": "fr:Boulenouar"
  }
},
{
  "type": "node",
  "id": 2577205740,
  "lat": 21.4269900,
  "lon": -16.9599250,
  "tags": {
    "alt_name": "Guergarat;گرگرات;گريگرات;ڭرڭورات مغربية",
    "name": "Guerguerat ⴳⵔⵉⴳⵔⴰⵜ الكركرات",
    "name:ar": "الكركرات",
    "name:ber": "ⴳⵔⵉⴳⵔⴰⵜ",
    "name:de": "Al-Karkarat",
    "name:en": "Guerguerat",
    "name:es": "Guerguerat",
    "name:fa": "گريگرات",
    "name:fr": "Guerguerat",
    "name:zgh": "ⴳⵔⵉⴳⵔⴰⵜ",
    "name:zh": "盖尔盖拉特",
    "place": "village",
    "population": "28",
    "wikidata": "Q3118919",
    "wikimedia_commons": "Category:Guerguerat",
    "wikipedia": "ar:الكركرات"
  }
},
{
  "type": "node",
  "id": 2580173802,
  "lat": 22.1974146,
  "lon": -16.7666339,
  "tags": {
    "int_name": "Lamhiriz",
    "name": "Lamhiriz",
    "name:ar": "لمهيريز",
    "name:ber": "ⵍⵎⵀⵉⵔⵉⵣ",
    "name:en": "Lamhiriz",
    "name:es": "Lemheirís",
    "name:fr": "Lamhiriz",
    "name:zgh": "ⵍⵎⵀⵉⵔⵉⵣ",
    "name:zh": "卡沃巴拉斯",
    "place": "village"
  }
},
{
  "type": "node",
  "id": 2580176781,
  "lat": 22.0555968,
  "lon": -16.7479559,
  "tags": {
    "alt_name": "C. Bir Gandouz",
    "int_name": "Barbas",
    "name": "Bir Gandus",
    "name:ar": "بئر كندو",
    "name:en": "Bir Gandus",
    "name:es": "Bir Gandus",
    "name:fr": "Bir Gandouz",
    "name:zh": "比尔甘杜斯",
    "place": "village",
    "population": "4625",
    "population:date": "2014",
    "source:population": "wikipedia"
  }
},
{
  "type": "node",
  "id": 2583473510,
  "lat": 21.2856977,
  "lon": -15.3197653,
  "tags": {
    "addr:city:fr": "أم غريدات",
    "name": "Oum Gredat أم غريدات",
    "name:ar": "أم غريدات",
    "name:fr": "Oum Gredat",
    "place": "village"
  }
},
{
  "type": "node",
  "id": 2583576213,
  "lat": 21.2863871,
  "lon": -14.9947378,
  "tags": {
    "name": "Inal إنال",
    "name:ar": "إنال",
    "name:de": "Inal",
    "name:es": "Inal",
    "name:fr": "Inal",
    "place": "town",
    "rank": "0"
  }
},
{
  "type": "node",
  "id": 2583960715,
  "lat": 21.2986843,
  "lon": -13.0671975,
  "tags": {
    "GNS:dsg_code": "PPL",
    "GNS:dsg_name": "populated place",
    "GNS:id": "9160030",
    "GNS:modify_date": "2010-07-29",
    "addr:city": "شوم",
    "addr:city:ar": "شوم",
    "ele": "328",
    "name": "Choûm شوم",
    "name:ar": "شوم",
    "name:ckb": "شوم",
    "name:de": "Schum",
    "name:en": "Choum",
    "name:es": "Choum",
    "name:fr": "Choûm",
    "name:he": "שום",
    "name:ru": "Шум",
    "place": "town",
    "population": "5000",
    "wikidata": "Q2660853",
    "wikipedia": "ar:شوم"
  }
},
{
  "type": "node",
  "id": 2584370667,
  "lat": 22.1751098,
  "lon": -12.6759818,
  "tags": {
    "GNS:dsg_code": "PPL",
    "GNS:dsg_name": "populated place",
    "GNS:id": "9213045",
    "GNS:modify_date": "2010-03-19",
    "name": "Touâjîl اتواجيل",
    "name:ar": "اتواجيل",
    "name:de": "Tuadschil",
    "name:en": "Twajeel",
    "name:fr": "Touâjîl",
    "place": "village"
  }
},
{
  "type": "node",
  "id": 2700705723,
  "lat": 26.8226830,
  "lon": -11.7529898,
  "tags": {
    "capital": "8",
    "name": "Sidi Ahmed Laaroussi سيدي أحمد العروسي",
    "name:ar": "سيدي أحمد العروسي",
    "name:ary": "سيدي أحمد لعروسي",
    "name:de": "Sidi Ahmed Laarosi",
    "name:en": "Sidi Ahmed Laarosi",
    "name:es": "Sidi Ahmed Laarosi",
    "name:fr": "Sidi Ahmed Laaroussi",
    "name:zh": "西迪艾哈迈德拉鲁西",
    "place": "village",
    "wikidata": "Q27534267",
    "wikipedia": "ar:سيدي أحمد العروسي",
    "wikipedia:ar": "سيدي أحمد العروسي",
    "wikipedia:es": "Sidi Ahmed Laarosi"
  }
},
{
  "type": "node",
  "id": 2734829135,
  "lat": 23.8885639,
  "lon": -14.5313258,
  "tags": {
    "capital": "6",
    "name": "Bir Anzarane ⴱⵉⵔⴰⵏⵣⴰⵔⴰⵏ بئر أنزران",
    "name:ar": "بئر أنزران",
    "name:ber": "ⴱⵉⵔⴰⵏⵣⴰⵔⴰⵏ",
    "name:en": "Bir Anzarane",
    "name:es": "Bir Enzarán",
    "name:fr": "Bir Anzarane",
    "name:zgh": "ⴱⵉⵔⴰⵏⵣⴰⵔⴰⵏ",
    "place": "village",
    "wikidata": "Q4915523",
    "wikipedia": "en:Bir Anzarane"
  }
},
{
  "type": "node",
  "id": 2801310265,
  "lat": 26.3832875,
  "lon": -14.2019306,
  "tags": {
    "name": "Agti El Ghazi ⴰⴳⵜⵉ ⵍⵖⴰⵣⵉ أغتي الغازي",
    "name:ar": "أغتي الغازي",
    "name:ber": "ⴰⴳⵜⵉ ⵍⵖⴰⵣⵉ",
    "name:en": "Agti El Ghazi",
    "name:es": "Hasi Hatas",
    "name:fr": "Agti El Ghazi",
    "name:zgh": "ⴰⴳⵜⵉ ⵍⵖⴰⵣⵉ",
    "place": "village",
    "wikidata": "Q63122022",
    "wikipedia": "ar:أكتي الغازي"
  }
},
{
  "type": "node",
  "id": 2801310287,
  "lat": 26.5393316,
  "lon": -13.8368297,
  "tags": {
    "capital": "7",
    "name": "Lamssid ⵍⵎⵙⵙⵉⴷ لمسيد",
    "name:ar": "لمسيد",
    "name:ber": "ⵍⵎⵙⵙⵉⴷ",
    "name:en": "Lemseid",
    "name:es": "Lemsid",
    "name:fr": "Lamssid",
    "name:zgh": "ⵍⵎⵙⵙⵉⴷ",
    "name:zh": "莱姆西德",
    "place": "village"
  }
},
{
  "type": "node",
  "id": 2802312328,
  "lat": 26.0752014,
  "lon": -11.7865321,
  "tags": {
    "capital": "7",
    "name": "Amgala ⴰⵎⴳⴰⵍⴰ أمكالة",
    "name:ar": "أمكالة",
    "name:ary": "أمݣالا",
    "name:arz": "امڭاله",
    "name:azb": "امقالا",
    "name:ber": "ⴰⵎⴳⴰⵍⴰ",
    "name:de": "Amgala",
    "name:en": "Amkāla",
    "name:es": "Amgala",
    "name:fa": "امگالا",
    "name:fr": "Amgala",
    "name:sv": "Amgala",
    "name:zgh": "ⴰⵎⴳⴰⵍⴰ",
    "place": "village",
    "wikidata": "Q1089347",
    "wikipedia": "ar:أمكالة",
    "wikipedia:es": "Amgala"
  }
},
{
  "type": "node",
  "id": 2802420373,
  "lat": 27.2474140,
  "lon": -10.4100660,
  "tags": {
    "capital": "7",
    "name": "Jdiriya ⵊⴷⵉⵢⵔⵉⵢⴰ أجديرية",
    "name:ar": "أجديرية",
    "name:ber": "ⵊⴷⵉⵢⵔⵉⵢⴰ",
    "name:en": "Jdiriya",
    "name:es": "El Jeriuia",
    "name:fr": "Jdiriya",
    "name:zgh": "ⵊⴷⵉⵢⵔⵉⵢⴰ",
    "name:zh": "季迪里亚",
    "place": "village",
    "wikidata": "Q1656837",
    "wikipedia": "ar:اجديرية"
  }
},
{
  "type": "node",
  "id": 2802423304,
  "lat": 27.1109910,
  "lon": -10.9713555,
  "tags": {
    "capital": "7",
    "name": "Haouza ⵃⵓⵣⴰ حوزة",
    "name:ar": "حوزة",
    "name:ber": "ⵃⵓⵣⴰ",
    "name:de": "Ḥauza",
    "name:en": "Ḥawza",
    "name:es": "Hausa",
    "name:fr": "Haouza",
    "name:zgh": "ⵃⵓⵣⴰ",
    "place": "village",
    "wikidata": "Q1584114",
    "wikipedia": "ar:حوزة (إقليم السمارة)",
    "wikipedia:es": "Hausa (Sáhara)"
  }
},
{
  "type": "node",
  "id": 2812419363,
  "lat": 24.1015009,
  "lon": -13.2756581,
  "tags": {
    "capital": "7",
    "name": "Oum Dreyga ⵓⵎ ⴷⵔⵉⴳⴰ أم ادريكة",
    "name:ar": "أم ادريكة",
    "name:ber": "ⵓⵎ ⴷⵔⵉⴳⴰ",
    "name:en": "Oum Dreyga",
    "name:es": "Um Dreiga",
    "name:fr": "Oum Dreyga",
    "name:zgh": "ⵓⵎ ⴷⵔⵉⴳⴰ",
    "name:zh": "乌姆阿格奈纳",
    "place": "village"
  }
},
{
  "type": "node",
  "id": 2812432577,
  "lat": 23.4472382,
  "lon": -12.8254976,
  "tags": {
    "alt_name": "ميجيك;ميجك",
    "alt_name:ar": "ميجيك;ميجك",
    "capital": "7",
    "name": "مجيك",
    "name:ar": "مجيك",
    "name:azb": "میجک",
    "name:ber": "ⵎⵉⵊⵉⴽ",
    "name:de": "Midschik",
    "name:en": "Mijik",
    "name:es": "Miyec",
    "name:fa": "میجک",
    "name:fr": "Mijik",
    "name:zgh": "ⵎⵉⵊⵉⴽ",
    "place": "village",
    "wikidata": "Q3313109",
    "wikipedia": "ar:مجيك"
  }
},
{
  "type": "node",
  "id": 3178443261,
  "lat": 23.2129725,
  "lon": -16.1120528,
  "tags": {
    "alt_name": "Village des Pêcheurs \"Tchika\" \"قرية الصيادين \"تشيكا",
    "alt_name:ar": "\"قرية الصيادين \"تشيكا",
    "alt_name:es": "Puntillas de las Raimas",
    "alt_name:fr": "Village des Pêcheurs \"Tchika\"",
    "name": "Tchika ⵜⵛⵉⴽⴰ تشيكا",
    "name:ar": "تشيكا",
    "name:ber": "ⵜⵛⵉⴽⴰ",
    "name:en": "Tchika",
    "name:es": "Chica",
    "name:fr": "Tchika",
    "name:zgh": "ⵜⵛⵉⴽⴰ",
    "name:zh": "莱赫托阿",
    "place": "village",
    "wikidata": "Q106647414"
  }
},
{
  "type": "node",
  "id": 3306657147,
  "lat": 21.0185352,
  "lon": -17.0059334,
  "tags": {
    "alt_name": "كابنو",
    "alt_name:ar": "كابنو",
    "name": "Kobanu كوبانو",
    "name:ar": "كوبانو",
    "name:en": "Kobanu",
    "name:fr": "Kobanu",
    "place": "village"
  }
},
{
  "type": "node",
  "id": 3556860847,
  "lat": 26.5372738,
  "lon": -12.3964944,
  "tags": {
    "int_name": "Ermayt Ellban",
    "name": "Ermayt Ellban ⵕⵎⴰⵢⵜ ⵍⵍⴱⴰⵏ أرميت اللبن",
    "name:ar": "أرميت اللبن",
    "name:ber": "ⵕⵎⴰⵢⵜ ⵍⵍⴱⴰⵏ",
    "name:en": "Ermayt Ellban",
    "name:es": "Remz Elbén",
    "name:fr": "Ermayt Ellban",
    "name:zgh": "ⵕⵎⴰⵢⵜ ⵍⵍⴱⴰⵏ",
    "name:zh": "赖姆兹艾勒班",
    "place": "village"
  }
},
{
  "type": "node",
  "id": 3646871675,
  "lat": 23.2349232,
  "lon": -16.0792488,
  "tags": {
    "alt_name:ar": "امليلي",
    "capital": "7",
    "name": "Imlili ⵉⵎⵍⵉⵍⵉ إمليلي",
    "name:ar": "إمليلي",
    "name:ber": "ⵉⵎⵍⵉⵍⵉ",
    "name:en": "Imlili",
    "name:es": "Imilili",
    "name:fr": "Imlili",
    "name:zgh": "ⵉⵎⵍⵉⵍⵉ",
    "name:zh": "伊米利利",
    "place": "village",
    "wikidata": "Q6004236",
    "wikipedia": "ar:إمليلي"
  }
},
{
  "type": "node",
  "id": 3647772272,
  "lat": 27.0628354,
  "lon": -10.6029827,
  "tags": {
    "name": "Touccat Nakhla ⵜⵓⴽⴰⵜ ⵏⴰⵅⵍⴰ توكات النخلة",
    "name:ar": "توكات النخلة",
    "name:ber": "ⵜⵓⴽⴰⵜ ⵏⴰⵅⵍⴰ",
    "name:en": "Touccat Nakhla",
    "name:es": "Tuccat",
    "name:fr": "Touccat Nakhla",
    "place": "village"
  }
},
{
  "type": "node",
  "id": 3647807674,
  "lat": 27.2442930,
  "lon": -9.4713680,
  "tags": {
    "name": "Al Farssia ⵍⴼⴰⵔⵙⵉⵢⴰ الفرسية",
    "name:ar": "الفرسية",
    "name:ber": "ⵍⴼⴰⵔⵙⵉⵢⴰ",
    "name:en": "Al Farssia",
    "name:es": "El Farsia",
    "name:fr": "Al Farssia",
    "name:zgh": "ⵍⴼⴰⵔⵙⵉⵢⴰ",
    "place": "village",
    "wikidata": "Q1339225",
    "wikipedia": "en:Farsia"
  }
},
{
  "type": "node",
  "id": 3817911035,
  "lat": 21.1944853,
  "lon": -14.1054096,
  "tags": {
    "place": "village"
  }
},
{
  "type": "node",
  "id": 3817911045,
  "lat": 21.2948248,
  "lon": -15.9119069,
  "tags": {
    "place": "village"
  }
},
{
  "type": "node",
  "id": 3818558336,
  "lat": 21.2694752,
  "lon": -16.5299062,
  "tags": {
    "place": "village"
  }
},
{
  "type": "node",
  "id": 3958300917,
  "lat": 21.4011992,
  "lon": -15.0762194,
  "tags": {
    "alt_name:ar": "البير الحامية;بئر الحامية",
    "int_name": "Bir Al Hamiya",
    "name": "Bir Al Hamiya ⴱⵉⵔ ⵍⵃⴰⵎⵢⴰ البئر الحامية",
    "name:ar": "البئر الحامية",
    "name:ber": "ⴱⵉⵔ ⵍⵃⴰⵎⵢⴰ",
    "name:en": "Bir Al Hamiya",
    "name:fr": "Bir Al Hamiya",
    "name:zgh": "ⴱⵉⵔ ⵍⵃⴰⵎⵢⴰ",
    "place": "village"
  }
},
{
  "type": "node",
  "id": 4057098042,
  "lat": 22.1841843,
  "lon": -13.1393725,
  "tags": {
    "addr:city": "أغونيت",
    "alt_name": "أڭونيت",
    "alt_name:ar": "أغوانيت;أغوينيت",
    "capital": "7",
    "name": "أغونيت Agüenit",
    "name:ar": "أغونيت",
    "name:azb": "اغوانیت",
    "name:ber": "ⴰⵖⵡⴰⵏⵉⵜ",
    "name:de": "Aghwinit",
    "name:en": "Aghwinit",
    "name:es": "Agüenit",
    "name:fa": "اغوانیت",
    "name:fr": "Aghouinite",
    "name:ks": "اغوانیت",
    "name:ur": "اغوانیت",
    "name:zgh": "ⴰⵖⵡⴰⵏⵉⵜ",
    "place": "town",
    "wikidata": "Q2260996",
    "wikipedia": "ar:أغونيت"
  }
},
{
  "type": "node",
  "id": 4057109756,
  "lat": 26.1476922,
  "lon": -11.0691899,
  "tags": {
    "alt_name": "مهيريز;محيرس",
    "alt_name:ar": "مهيريز;محيرس",
    "alt_name:es": "Mheiriz;Mehaires;Meheiris",
    "name": "امهيريز Meharrize",
    "name:ar": "امهيريز",
    "name:ber": "ⵎⵀⵉⵔⵉⵣ",
    "name:en": "Meharrize",
    "name:es": "Meharrize",
    "name:fr": "Mehaires",
    "name:zgh": "ⵎⵀⵉⵔⵉⵣ",
    "place": "village",
    "wikidata": "Q3304460",
    "wikipedia": "es:Meharrize",
    "wikipedia:es": "Meharrize"
  }
},
{
  "type": "node",
  "id": 4057121154,
  "lat": 22.0553170,
  "lon": -13.5531340,
  "tags": {
    "name": "دوكاج Duguech",
    "name:ar": "دوكاج",
    "name:ber": "ⴷⵓⴳⴰⵊ",
    "name:en": "Dougaj",
    "name:es": "Duguech",
    "name:fr": "Dougaj",
    "name:kab": "دوگاج",
    "name:zgh": "ⴷⵓⴳⴰⵊ",
    "place": "village",
    "wikidata": "Q3037972",
    "wikipedia": "en:Dougaj"
  }
},
{
  "type": "node",
  "id": 4060194055,
  "lat": 26.0649843,
  "lon": -11.1209186,
  "tags": {
    "place": "village"
  }
},
{
  "type": "node",
  "id": 4066589807,
  "lat": 23.5165517,
  "lon": -14.2050606,
  "tags": {
    "capital": "7",
    "name": "ⴳⵍⵉⴱⴰⵜ ⵍⴼⵓⵍⴰ Gleibat El Foula",
    "name:ar": "اكليبات الفولة",
    "name:ber": "ⴳⵍⵉⴱⴰⵜ ⵍⴼⵓⵍⴰ",
    "name:en": "Gleibat El Foula",
    "name:fr": "Gleibat El Foula",
    "name:zgh": "ⴳⵍⵉⴱⴰⵜ ⵍⴼⵓⵍⴰ",
    "place": "village",
    "wikidata": "Q5567503",
    "wikipedia": "en:Gleibat El Foula"
  }
},
{
  "type": "node",
  "id": 4306318492,
  "lat": 27.0408228,
  "lon": -10.6149528,
  "tags": {
    "place": "village"
  }
},
{
  "type": "node",
  "id": 5217818384,
  "lat": 23.8508997,
  "lon": -12.9720855,
  "tags": {
    "place": "village"
  }
},
{
  "type": "node",
  "id": 5239054148,
  "lat": 27.4618146,
  "lon": -9.2400062,
  "tags": {
    "name": "Sgigma ⵙⴳⵉⴳⵎⴰ سكيكمة",
    "name:ar": "سكيكمة",
    "name:ber": "ⵙⴳⵉⴳⵎⴰ",
    "name:en": "Sgigma",
    "name:es": "Escaiquima",
    "name:fr": "Sgigma",
    "place": "village"
  }
},
{
  "type": "node",
  "id": 5303875289,
  "lat": 24.0770685,
  "lon": -15.5762597,
  "tags": {
    "name": "Ntirift انتيرفت",
    "name:ar": "انتيرفت",
    "name:en": "Ntirift",
    "name:es": "Entaireft",
    "name:fr": "Ntirift",
    "place": "village",
    "wikidata": "Q62401305",
    "wikipedia": "ar:نتيرفت"
  }
},
{
  "type": "node",
  "id": 7786015037,
  "lat": 25.6146345,
  "lon": -14.6830130,
  "tags": {
    "name": "Aftissat أفتيسات",
    "name:ar": "أفتيسات",
    "name:en": "Aftissat",
    "name:es": "Aufist",
    "name:fr": "Aftissat",
    "place": "village",
    "wikidata": "Q63122023",
    "wikipedia": "en:Aftissat"
  }
},
{
  "type": "node",
  "id": 11117728160,
  "lat": 21.2138817,
  "lon": -11.8919080,
  "tags": {
    "name": "Aghmakoum",
    "note": "Rank=0 pour plus de visibilité car village isolée dans la valée, très important pour le voyageur",
    "place": "village",
    "rank": "0"
  }
},
{
  "type": "node",
  "id": 11851163346,
  "lat": 24.4130993,
  "lon": -15.2041998,
  "tags": {
    "name": "Targazimat",
    "place": "village"
  }
},
{
  "type": "node",
  "id": 11851215558,
  "lat": 24.3822994,
  "lon": -15.2646999,
  "tags": {
    "name": "Imatlane",
    "place": "village"
  }
},
{
  "type": "node",
  "id": 11851229902,
  "lat": 24.3846569,
  "lon": -15.2617521,
  "tags": {
    "name": "Imatlane",
    "place": "village"
  }
},
{
  "type": "node",
  "id": 11851279324,
  "lat": 24.7057991,
  "lon": -14.8816004,
  "tags": {
    "name": "Hassiane Uad Craa",
    "place": "village"
  }
}

  ]
}
