{
  "version": 0.6,
  "generator": "Overpass API 0.7.62.10 2d4cfc48",
  "osm3s": {
    "timestamp_osm_base": "2026-01-31T22:32:32Z",
    "copyright": "The data included in this document is from www.openstreetmap.org. The data is made available under ODbL."
  },
  "elements": [

{
  "type": "node",
  "id": 1085803124,
  "lat": 27.5163406,
  "lon": 95.3427887,
  "tags": {
    "amenity": "prison",
    "name": "Tinsukia New Jail"
  }
},
{
  "type": "node",
  "id": 1513673398,
  "lat": 28.1007471,
  "lon": 83.8704674,
  "tags": {
    "amenity": "prison"
  }
},
{
  "type": "node",
  "id": 3392361359,
  "lat": 27.6770787,
  "lon": 84.4357034,
  "tags": {
    "amenity": "prison",
    "name": "district prison"
  }
},
{
  "type": "node",
  "id": 4388583154,
  "lat": 27.5438370,
  "lon": 85.1223824,
  "tags": {
    "amenity": "prison",
    "name": "Bhimphedi Jail",
    "operator": "Nepal Goverment"
  }
},
{
  "type": "node",
  "id": 4498023491,
  "lat": 27.9940693,
  "lon": 84.6232167,
  "tags": {
    "amenity": "prison",
    "name": "Gorkha Prison Jail"
  }
},
{
  "type": "node",
  "id": 4674571030,
  "lat": 28.0242303,
  "lon": 79.1287110,
  "tags": {
    "amenity": "prison"
  }
},
{
  "type": "node",
  "id": 5651307975,
  "lat": 28.1092760,
  "lon": 85.2983263,
  "tags": {
    "amenity": "prison",
    "name": "District Prison"
  }
},
{
  "type": "node",
  "id": 7037458908,
  "lat": 26.5305611,
  "lon": 93.9603353,
  "tags": {
    "addr:city": "Golaghat",
    "addr:postcode": "785621",
    "amenity": "prison",
    "name": "Golaghat District Prison"
  }
},
{
  "type": "node",
  "id": 7980138305,
  "lat": 26.0811793,
  "lon": 94.2561968,
  "tags": {
    "amenity": "prison",
    "name": "Sub Jail"
  }
},
{
  "type": "node",
  "id": 8309122626,
  "lat": 29.1526866,
  "lon": 81.6015389,
  "tags": {
    "amenity": "prison",
    "name": "District Prison Kalikot",
    "source": "yil2020"
  }
},
{
  "type": "node",
  "id": 8933098043,
  "lat": 26.8544750,
  "lon": 81.0120452,
  "tags": {
    "addr:housenumber": "6/395",
    "addr:street": "Vineet Khand Gomti Nagar",
    "amenity": "prison",
    "name": "6/395 Vineet Khand Gomti Nagagr Lucknow",
    "survey:date": "2021-07-19"
  }
},
{
  "type": "node",
  "id": 9197200625,
  "lat": 29.2902445,
  "lon": 90.9896732,
  "tags": {
    "amenity": "prison",
    "fixme": "check landuse"
  }
},
{
  "type": "node",
  "id": 9215687596,
  "lat": 28.1339135,
  "lon": 82.3040007,
  "tags": {
    "amenity": "prison",
    "email": "tulsipurkaragar21@gmail.com",
    "mobile": "9857871777",
    "name": "तुलसीपुर कारागार",
    "name:en": "Prison Office Tulsipur",
    "name:ne": "तुलसीपुर कारागार",
    "phone": "082-520021",
    "website": "dopm.gov.np"
  }
},
{
  "type": "node",
  "id": 9317939821,
  "lat": 27.6677059,
  "lon": 86.0505867,
  "tags": {
    "amenity": "prison",
    "government": "prosecutor",
    "name": "जिल्ला कारागार कार्यालय",
    "office": "government"
  }
},
{
  "type": "node",
  "id": 9781998579,
  "lat": 28.0695994,
  "lon": 83.2480082,
  "tags": {
    "amenity": "prison",
    "name": "District Jail (जिल्ला कारागार गुल्मी)"
  }
},
{
  "type": "node",
  "id": 9879106859,
  "lat": 27.9697770,
  "lon": 78.5981655,
  "tags": {
    "amenity": "prison",
    "name": "District Jail Kasganj Uttar Pradesh"
  }
},
{
  "type": "node",
  "id": 11115483252,
  "lat": 29.2689550,
  "lon": 82.1766642,
  "tags": {
    "amenity": "prison",
    "name": "Jumla Prison"
  }
},
{
  "type": "node",
  "id": 11757733547,
  "lat": 26.3976891,
  "lon": 90.2584934,
  "tags": {
    "amenity": "prison"
  }
},
{
  "type": "node",
  "id": 12269143298,
  "lat": 28.0339910,
  "lon": 82.4815971,
  "tags": {
    "amenity": "prison",
    "name": "जिल्ला कारागार कार्यालय, दाङ्",
    "name:en": "District Prison Office, Dang",
    "name:ne": "जिल्ला कारागार कार्यालय, दाङ्",
    "operator": "government",
    "phone": "+977-82-560759"
  }
},
{
  "type": "node",
  "id": 13232389092,
  "lat": 29.2685719,
  "lon": 82.1765616,
  "tags": {
    "addr:city": "Jumla",
    "amenity": "prison",
    "name": "Jumla District Prision"
  }
},
{
  "type": "node",
  "id": 13359170379,
  "lat": 26.2140310,
  "lon": 81.2361122,
  "tags": {
    "addr:city": "Raebareli",
    "addr:district": "Raebareli",
    "addr:postcode": "229001",
    "addr:street": "Jail road",
    "amenity": "prison",
    "name": "Raebareli District Jail"
  }
},
{
  "type": "way",
  "id": 45059146,
  "nodes": [
    571371334,
    571371337,
    571371340,
    571371342,
    571371343,
    571371344,
    571371334
  ],
  "tags": {
    "amenity": "prison",
    "name": "Central Jail, Kanpur"
  }
},
{
  "type": "way",
  "id": 87834951,
  "nodes": [
    1021088747,
    1021091205,
    1021093137,
    1021089788,
    1021082306,
    1021090202,
    1021091249,
    1021087919,
    1021088652,
    1021083952,
    1021088747
  ],
  "tags": {
    "amenity": "prison"
  }
},
{
  "type": "way",
  "id": 116759469,
  "nodes": [
    1315479033,
    12548937803,
    1315479052,
    12548937802,
    1315479056,
    12548937801,
    1315479027,
    12548937800,
    12548937799,
    1315478965,
    1315478958,
    1315478866,
    12548937805,
    12548937804,
    1315478887,
    11472381866,
    1315479033
  ],
  "tags": {
    "amenity": "prison",
    "name": "Siliguri Special Correctional Home"
  }
},
{
  "type": "way",
  "id": 129536688,
  "nodes": [
    1429008943,
    1429008935,
    1429008929,
    1429008947,
    1429008969,
    1429008943
  ],
  "tags": {
    "amenity": "prison",
    "barrier": "wall"
  }
},
{
  "type": "way",
  "id": 129536692,
  "nodes": [
    1429009997,
    1429009988,
    3587844075,
    3587844074,
    1429010066,
    1429010068,
    3587844077,
    3587844076,
    1429009997
  ],
  "tags": {
    "amenity": "prison",
    "barrier": "wall"
  }
},
{
  "type": "way",
  "id": 136441543,
  "nodes": [
    1496605739,
    1496605751,
    1496605710,
    1496605769,
    1496605729,
    1496605761,
    1496605724,
    1496605739
  ],
  "tags": {
    "amenity": "prison",
    "name": "Nakhu Jail",
    "old_name": "Nakhu Jail"
  }
},
{
  "type": "way",
  "id": 200535834,
  "nodes": [
    2105136813,
    2105136804,
    2105136774,
    2105136777,
    2105136813
  ],
  "tags": {
    "amenity": "prison",
    "building": "yes",
    "designation": "Prison",
    "name": "ChaarKhaal"
  }
},
{
  "type": "way",
  "id": 215482365,
  "nodes": [
    2249300198,
    2249300440,
    2249300501,
    2249300651,
    2249300919,
    2249301015,
    2249301028,
    2249301032,
    2249300986,
    2249300828,
    2249300379,
    2249299786,
    2249299734,
    2249299569,
    2249299466,
    2249299468,
    2249299473,
    2249299493,
    2249299501,
    2249299526,
    2249299532,
    2249299562,
    2249299600,
    2249299612,
    2249299604,
    2249299621,
    2249299594,
    2249299582,
    2249299592,
    2249299631,
    2249299645,
    2249299860,
    2249300131,
    2249300494,
    2249300198
  ],
  "tags": {
    "barrier": "fence",
    "landuse": "prison",
    "name": "Lucknow Prision"
  }
},
{
  "type": "way",
  "id": 215482655,
  "nodes": [
    2249299476,
    2249463591,
    2249463592,
    2249463595,
    2249463596,
    2249299757,
    2249463599,
    2249299907,
    2249463603,
    2249463613,
    2249300160,
    2249300431,
    2249463627,
    2249463608,
    2249300116,
    2249463609,
    2249463623,
    2249300422,
    2249463618,
    2249463616,
    2249463598,
    2249299879,
    2249299608,
    2249299575,
    2249299555,
    2249299476
  ],
  "tags": {
    "amenity": "prison",
    "barrier": "wall"
  }
},
{
  "type": "way",
  "id": 215482712,
  "nodes": [
    2249300838,
    2249300429,
    2249300533,
    2249300618,
    2249300690,
    2249300727,
    2249300921,
    2249300838
  ],
  "tags": {
    "amenity": "prison",
    "barrier": "wall"
  }
},
{
  "type": "way",
  "id": 215482713,
  "nodes": [
    2249299931,
    2249300463,
    2249463632,
    2249463634,
    2249300737,
    2249300277,
    2249463617,
    2249300241,
    2249300103,
    2249300042,
    2249463607,
    2249299931
  ],
  "tags": {
    "amenity": "prison",
    "barrier": "wall"
  }
},
{
  "type": "way",
  "id": 217937036,
  "nodes": [
    2272440220,
    2272440216,
    2272440232,
    2272440234,
    2272440242,
    2272440243,
    2272440238,
    2272440236,
    2272440220
  ],
  "tags": {
    "amenity": "prison",
    "name": "District Jail"
  }
},
{
  "type": "way",
  "id": 237446896,
  "nodes": [
    2453409421,
    13140856152,
    13140856138,
    2453409422,
    2453409420,
    10836853366,
    2453409419,
    2453409421
  ],
  "tags": {
    "alt_name": "Zhamu Prison,;Bomi Prison",
    "amenity": "prison",
    "name:en": "Powo Tramo Prison Area no.2",
    "source": "esriWorld"
  }
},
{
  "type": "way",
  "id": 277988071,
  "nodes": [
    2824214079,
    2824214080,
    3502294615,
    3502294613,
    2824214081,
    2824214082,
    3489450000,
    3489450006,
    2824214079
  ],
  "tags": {
    "addr:city": "Nuwakot",
    "addr:postcode": "+977-010",
    "addr:street": "Dhunge",
    "amenity": "prison",
    "name": "District Jail"
  }
},
{
  "type": "way",
  "id": 283842184,
  "nodes": [
    2876607220,
    2876607211,
    2876607209,
    2876607232,
    2876607242,
    2876607220
  ],
  "tags": {
    "amenity": "prison",
    "name": "District Jail Bijnor",
    "name:hi": "जिला कारागार बिजनौर"
  }
},
{
  "type": "way",
  "id": 348756663,
  "nodes": [
    3548136421,
    3548136422,
    3548136423,
    3548136424,
    3548136427,
    3548136428,
    3548136430,
    3548136431,
    9471571859,
    9471532215,
    3548136432,
    9471571860,
    3548136433,
    3548136434,
    3548136435,
    3548136436,
    3548136421
  ],
  "tags": {
    "amenity": "prison",
    "name": "Myagdi jilla karagar"
  }
},
{
  "type": "way",
  "id": 350296598,
  "nodes": [
    3560346969,
    3560346970,
    3560346971,
    3560346972,
    3439512608,
    3560343540,
    3560346974,
    3560346975,
    3560346976,
    3560346979,
    3439512614,
    3560346969
  ],
  "tags": {
    "amenity": "prison",
    "name": "Central Prison"
  }
},
{
  "type": "way",
  "id": 351843391,
  "nodes": [
    3576452938,
    3576452959,
    3576452939,
    3576452940,
    3576452945,
    3576452954,
    3576452953,
    3576452962,
    3576452961,
    3576452936,
    3576452938
  ],
  "tags": {
    "amenity": "prison"
  }
},
{
  "type": "way",
  "id": 358944913,
  "nodes": [
    3637672844,
    3637672819,
    3637672814,
    3637672668,
    3637672653,
    3637672644,
    3637672636,
    3637672646,
    3637672804,
    3637672844
  ],
  "tags": {
    "amenity": "prison",
    "name": "Jorhat Central Jail"
  }
},
{
  "type": "way",
  "id": 364466006,
  "nodes": [
    3685101161,
    3685101162,
    3685101163,
    3685101164,
    3685101165,
    7927748584,
    3685101161
  ],
  "tags": {
    "addr:city": "Birgunj",
    "addr:street": "Jail Road",
    "amenity": "prison",
    "name": "Birgunj Jail"
  }
},
{
  "type": "way",
  "id": 403999725,
  "nodes": [
    4287650981,
    4287650980,
    4287650969,
    4287650975,
    4287650977,
    4287650981
  ],
  "tags": {
    "amenity": "prison",
    "barrier": "fence",
    "name": "District Prison, Kaski",
    "name:ne": "कारागार कार्यालय",
    "office": "government",
    "opening_hours": "24/7",
    "operator": "government"
  }
},
{
  "type": "way",
  "id": 424190749,
  "nodes": [
    4236537486,
    4236537487,
    13471611729,
    13471611759,
    4236537488,
    4236537489,
    13471611758,
    4236537486
  ],
  "tags": {
    "amenity": "prison"
  }
},
{
  "type": "way",
  "id": 432362536,
  "nodes": [
    4314332714,
    4314332715,
    4314332716,
    4314332717,
    4314332714
  ],
  "tags": {
    "amenity": "prison",
    "name": "District Prison Office, Rukum"
  }
},
{
  "type": "way",
  "id": 435271824,
  "nodes": [
    4332068652,
    4332068653,
    4332069304,
    4332068654,
    4332068655,
    4332068652
  ],
  "tags": {
    "amenity": "prison",
    "name": "District Prison of Jhapa"
  }
},
{
  "type": "way",
  "id": 435271826,
  "nodes": [
    4332068652,
    4332068653,
    4332069304,
    4332069305,
    4332068652
  ],
  "tags": {
    "amenity": "prison",
    "name": "ladies section of prison"
  }
},
{
  "type": "way",
  "id": 435271867,
  "nodes": [
    4332069305,
    4332069304,
    4332068654,
    4332068655,
    4332069305
  ],
  "tags": {
    "amenity": "prison",
    "name": "male section of prison"
  }
},
{
  "type": "way",
  "id": 454500702,
  "nodes": [
    4510542457,
    4510542458,
    4510542459,
    4510542460,
    4510542457
  ],
  "tags": {
    "amenity": "prison"
  }
},
{
  "type": "way",
  "id": 455429008,
  "nodes": [
    4518337163,
    4518337164,
    4518337165,
    4518337166,
    4518337184,
    8432787414,
    8432787413,
    8432787412,
    4518337168,
    4518337169,
    4518337170,
    4518337171,
    4518337172,
    8432787415,
    4518337163
  ],
  "tags": {
    "amenity": "prison",
    "barrier": "fence"
  }
},
{
  "type": "way",
  "id": 460012761,
  "nodes": [
    4557044579,
    4557044578,
    4557044577,
    4557044576,
    4557044579
  ],
  "tags": {
    "amenity": "prison"
  }
},
{
  "type": "way",
  "id": 472040621,
  "nodes": [
    4662685216,
    4662685217,
    4662685218,
    4662685219,
    4662685216
  ],
  "tags": {
    "amenity": "prison",
    "name": "Prison Ground"
  }
},
{
  "type": "way",
  "id": 509534244,
  "nodes": [
    4987584181,
    4987584182,
    4987584183,
    4987584184,
    4987584185,
    4987584186,
    6167805068,
    4985284890,
    4987584188,
    4985284897,
    4987584190,
    4987584191,
    4987584192,
    4987584193,
    4987584194,
    4987584195,
    4987584196,
    4987584197,
    4987584198,
    4987584199,
    4987584200,
    4987584201,
    4987584202,
    4987584181
  ],
  "tags": {
    "amenity": "prison",
    "name": "New Tehri Jail"
  }
},
{
  "type": "way",
  "id": 513976004,
  "nodes": [
    5022544101,
    4902411768,
    4902411771,
    4902411770,
    5022544102,
    5022544103,
    5022544101
  ],
  "tags": {
    "amenity": "prison"
  }
},
{
  "type": "way",
  "id": 514496069,
  "nodes": [
    5026297766,
    5026297765,
    5026297764,
    5026297763,
    5026297762,
    5026297761,
    5026297760,
    5026297759,
    5026297766
  ],
  "tags": {
    "amenity": "prison"
  }
},
{
  "type": "way",
  "id": 519483246,
  "nodes": [
    5065447521,
    5065447522,
    5065447523,
    5065447524,
    5065447521
  ],
  "tags": {
    "amenity": "prison"
  }
},
{
  "type": "way",
  "id": 519521341,
  "nodes": [
    5065687679,
    5065687680,
    5065687681,
    5065687682,
    5065687683,
    5065687684,
    5065687679
  ],
  "tags": {
    "amenity": "prison"
  }
},
{
  "type": "way",
  "id": 530001102,
  "nodes": [
    5147640023,
    5147640024,
    5147640025,
    5147640026,
    5147640027,
    5147640028,
    5147640029,
    5147640030,
    5147640031,
    5147640032,
    5147640033,
    5147640034,
    5147640035,
    5147640036,
    5147640037,
    5147640038,
    5147640039,
    5147640023
  ],
  "tags": {
    "amenity": "prison",
    "name": "昌都市看守所"
  }
},
{
  "type": "way",
  "id": 532676835,
  "nodes": [
    5168684934,
    5168684933,
    5168684932,
    5168684930,
    5168684927,
    5168684925,
    5168684924,
    5168684923,
    5170647289,
    5170647288,
    5168684922,
    5168684921,
    5168684934
  ],
  "tags": {
    "addr:city": "Nilkantha Municipality",
    "addr:country": "NP",
    "addr:place": "Dhading Besi",
    "amenity": "prison",
    "name": "Dhading Prison",
    "name:ne": "धादिंग जेल"
  }
},
{
  "type": "way",
  "id": 553336155,
  "nodes": [
    5341411659,
    5341411658,
    5341411657,
    5341411656,
    5341411655,
    5341411654,
    5341411653,
    5341411652,
    5341411651,
    5341411659
  ],
  "tags": {
    "amenity": "prison"
  }
},
{
  "type": "way",
  "id": 588785859,
  "nodes": [
    5622971581,
    5622971580,
    5622971587,
    5622971586,
    5622971585,
    5622971584,
    5622971583,
    5622971582,
    5622971581
  ],
  "tags": {
    "amenity": "prison"
  }
},
{
  "type": "way",
  "id": 612336483,
  "nodes": [
    5796433313,
    5796433314,
    5796433315,
    5796433316,
    5796433313
  ],
  "tags": {
    "amenity": "prison",
    "name": "Jhanjharpur Sub Jail"
  }
},
{
  "type": "way",
  "id": 620263138,
  "nodes": [
    5860414984,
    10095003699,
    5860415885,
    5860415886,
    5860415887,
    13018132506,
    13018132507,
    13018132512,
    13018132511,
    13018132510,
    13018132509,
    13018132508,
    5860414984
  ],
  "tags": {
    "amenity": "prison",
    "name": "Kharagar, Jumla"
  }
},
{
  "type": "way",
  "id": 640629640,
  "nodes": [
    6034911560,
    6034911558,
    6034911557,
    6034911559,
    6034911560
  ],
  "tags": {
    "amenity": "prison"
  }
},
{
  "type": "way",
  "id": 657050971,
  "nodes": [
    6154121560,
    6154121559,
    6154121558,
    6154121557,
    6154121556,
    6154121555,
    6154121554,
    6154121553,
    6154121552,
    6154121560
  ],
  "tags": {
    "amenity": "prison"
  }
},
{
  "type": "way",
  "id": 657050986,
  "nodes": [
    6154129056,
    6154129054,
    6154129053,
    6154129055,
    6154129056
  ],
  "tags": {
    "amenity": "prison"
  }
},
{
  "type": "way",
  "id": 664163555,
  "nodes": [
    6216477846,
    6216477847,
    6216477866,
    6216477848,
    6216477849,
    6216477867,
    6216477871,
    6216477872,
    6216477850,
    6216477851,
    6216477868,
    6216477852,
    6216477869,
    6216477853,
    6216477854,
    6216477861,
    6216477855,
    6216477856,
    6216477857,
    6216477858,
    6216477862,
    6216477864,
    6216477863,
    6216477865,
    6216477846
  ],
  "tags": {
    "amenity": "prison"
  }
},
{
  "type": "way",
  "id": 669556399,
  "nodes": [
    6270072145,
    6270072146,
    6270072147,
    6270072148,
    6270072149,
    6270072150,
    6270072151,
    6270072152,
    6270072153,
    6270072154,
    6270072145
  ],
  "tags": {
    "addr:city": "Itanagar",
    "addr:postcode": "791113",
    "addr:street": "Jully Basti Road",
    "amenity": "prison",
    "name": "District Jail",
    "operator": "DIGP, Prison, Govt. of Arunachal Pradesh"
  }
},
{
  "type": "way",
  "id": 669701508,
  "nodes": [
    6271596030,
    6271596029,
    6271596028,
    6271596027,
    3353591366,
    6271596026,
    6271596030
  ],
  "tags": {
    "amenity": "prison",
    "name": "DEORIA SADAR JAIL"
  }
},
{
  "type": "way",
  "id": 701548293,
  "nodes": [
    6588506546,
    6588506547,
    6588506548,
    6588506549,
    6588506550,
    6588506551,
    6588506552,
    6588506553,
    6588506554,
    6588506555,
    6588506556,
    6588506557,
    6588506558,
    6588506559,
    6588506560,
    6588506561,
    6588506546
  ],
  "tags": {
    "amenity": "prison",
    "name": "Chamoli district Jail"
  }
},
{
  "type": "way",
  "id": 724003509,
  "nodes": [
    6790181876,
    6790181879,
    6790181880,
    6790181881,
    6790195294,
    6790181882,
    6790181883,
    6790181884,
    6790195295,
    6790181878,
    6790181877,
    6790195340,
    6790195341,
    6790195339,
    6790181876
  ],
  "tags": {
    "amenity": "prison",
    "barrier": "wall",
    "name": "Sindhuli District Prison"
  }
},
{
  "type": "way",
  "id": 744244629,
  "nodes": [
    6965599745,
    6965599744,
    6965599743,
    6965599742,
    6965599745
  ],
  "tags": {
    "amenity": "prison"
  }
},
{
  "type": "way",
  "id": 753168472,
  "nodes": [
    7037458904,
    7037458905,
    7037458906,
    7037458907,
    7037458904
  ],
  "tags": {
    "addr:city": "Golaghat",
    "addr:postcode": "785621",
    "amenity": "prison",
    "name": "District Prison"
  }
},
{
  "type": "way",
  "id": 773587300,
  "nodes": [
    7220848291,
    7220848290,
    7220848289,
    7220848288,
    7220848287,
    7220848286,
    7220848285,
    7220848284,
    7220848283,
    7220848282,
    7220848281,
    7220848291
  ],
  "tags": {
    "amenity": "prison",
    "name": "Sitarganj Jail"
  }
},
{
  "type": "way",
  "id": 835808252,
  "nodes": [
    7801389284,
    7801389283,
    7801389282,
    7801389281,
    7801389280,
    7801389279,
    7801389278,
    7801389277,
    7801389276,
    7801389275,
    7801389274,
    7801389273,
    7801389284
  ],
  "tags": {
    "amenity": "prison"
  }
},
{
  "type": "way",
  "id": 844491777,
  "nodes": [
    7877577016,
    7877577017,
    7877577018,
    7877577019,
    7877577016
  ],
  "tags": {
    "addr:city": "Lajpat Nagar, Faizabad",
    "addr:postcode": "224001",
    "amenity": "prison",
    "name": "District Jail"
  }
},
{
  "type": "way",
  "id": 852970365,
  "nodes": [
    7955862010,
    13474595198,
    7955862011,
    7955862012,
    13474598601,
    7955862013,
    7955862014,
    7955862010
  ],
  "tags": {
    "amenity": "prison",
    "barrier": "wall"
  }
},
{
  "type": "way",
  "id": 852989209,
  "nodes": [
    7956047191,
    7956047190,
    7956047189,
    7956047188,
    7956047191
  ],
  "tags": {
    "amenity": "prison"
  }
},
{
  "type": "way",
  "id": 854834638,
  "nodes": [
    7972584683,
    7972584684,
    7972642285,
    7972642286,
    7972584683
  ],
  "tags": {
    "amenity": "prison"
  }
},
{
  "type": "way",
  "id": 892263583,
  "nodes": [
    8293320299,
    8293371566,
    8293320312,
    8293320311,
    8293320310,
    8293320308,
    8293320306,
    8293320305,
    8293320304,
    8293320303,
    8293320302,
    8293371518,
    8293320301,
    8293320300,
    8293320299
  ],
  "tags": {
    "amenity": "prison"
  }
},
{
  "type": "way",
  "id": 901013265,
  "nodes": [
    8370140982,
    8370140983,
    8370140984,
    8370140985,
    8370140986,
    8370140982
  ],
  "tags": {
    "amenity": "prison",
    "name": "Haldwani Jail",
    "name:ur": "ہلدوانی جیل"
  }
},
{
  "type": "way",
  "id": 927810997,
  "nodes": [
    8607486286,
    8607486287,
    8607486288,
    8607486289,
    8607486286
  ],
  "tags": {
    "amenity": "prison",
    "name": "Karagar, Parbat"
  }
},
{
  "type": "way",
  "id": 961105454,
  "nodes": [
    8890832396,
    8890832397,
    8890832398,
    8890832399,
    8890832396
  ],
  "tags": {
    "amenity": "prison",
    "barrier": "wall"
  }
},
{
  "type": "way",
  "id": 964411559,
  "nodes": [
    8920541149,
    8920541151,
    8920541150,
    8920541152,
    8920541149
  ],
  "tags": {
    "amenity": "prison",
    "barrier": "wall"
  }
},
{
  "type": "way",
  "id": 964411568,
  "nodes": [
    8920541183,
    8920541184,
    8920541185,
    8920541186,
    8920541183
  ],
  "tags": {
    "amenity": "prison",
    "barrier": "wall"
  }
},
{
  "type": "way",
  "id": 971938392,
  "nodes": [
    8995691692,
    8995691693,
    8995691694,
    8995691695,
    8995691692
  ],
  "tags": {
    "amenity": "prison",
    "barrier": "wall"
  }
},
{
  "type": "way",
  "id": 977609276,
  "nodes": [
    9045940656,
    9045940657,
    9045940658,
    9045940659,
    9045940656
  ],
  "tags": {
    "amenity": "prison",
    "barrier": "wall"
  }
},
{
  "type": "way",
  "id": 985003609,
  "nodes": [
    9106503650,
    9106503651,
    9106503652,
    9106503653,
    9106503654,
    9106503655,
    12175797715,
    9106503656,
    9106503657,
    9106503650
  ],
  "tags": {
    "amenity": "prison",
    "name": "拉萨监狱",
    "name:zh": "拉萨监狱"
  }
},
{
  "type": "way",
  "id": 985003610,
  "nodes": [
    9106503658,
    9106503659,
    9718317160,
    9106503660,
    9106503661,
    9718317168,
    9106503662,
    9106503663,
    9106503664,
    9106503665,
    9106503658
  ],
  "tags": {
    "amenity": "prison",
    "name": "西藏自治区监狱",
    "name:zh": "西藏自治区监狱"
  }
},
{
  "type": "way",
  "id": 990575427,
  "nodes": [
    9153216059,
    9153216058,
    9153216057,
    9153216056,
    9153216055,
    9153216054,
    9153216053,
    9153216052,
    9153216051,
    9153216059
  ],
  "tags": {
    "amenity": "prison"
  }
},
{
  "type": "way",
  "id": 997933219,
  "nodes": [
    9214261772,
    9214261771,
    9214261770,
    9214261769,
    9214261768,
    9214261767,
    9214261766,
    9214261765,
    9214261764,
    9214261763,
    9214261772
  ],
  "tags": {
    "amenity": "prison",
    "name": "Central Jail"
  }
},
{
  "type": "way",
  "id": 1004180702,
  "nodes": [
    9265403450,
    9265403451,
    9265403452,
    9265403453,
    9265403469,
    9265403450
  ],
  "tags": {
    "amenity": "prison",
    "barrier": "wall"
  }
},
{
  "type": "way",
  "id": 1004180716,
  "nodes": [
    9265403506,
    9265403507,
    9265403508,
    9265403509,
    9265403506
  ],
  "tags": {
    "amenity": "prison",
    "barrier": "wall"
  }
},
{
  "type": "way",
  "id": 1004187548,
  "nodes": [
    9265451670,
    9265451671,
    9265451672,
    9265451673,
    9265451670
  ],
  "tags": {
    "amenity": "prison",
    "barrier": "wall"
  }
},
{
  "type": "way",
  "id": 1008256938,
  "nodes": [
    9301743887,
    9301743890,
    9301743889,
    9301743888,
    9301743887
  ],
  "tags": {
    "amenity": "prison",
    "barrier": "wall"
  }
},
{
  "type": "way",
  "id": 1008261469,
  "nodes": [
    9301777592,
    9301777591,
    9301777590,
    9301777589,
    9301777588,
    9301777587,
    9301777586,
    9301777585,
    9301777592
  ],
  "tags": {
    "amenity": "prison"
  }
},
{
  "type": "way",
  "id": 1010358636,
  "nodes": [
    9322254863,
    9322254864,
    9322254865,
    9322254862,
    9322254863
  ],
  "tags": {
    "amenity": "prison"
  }
},
{
  "type": "way",
  "id": 1057088334,
  "nodes": [
    9713234975,
    9713234974,
    9713234973,
    9713234972,
    9713234971,
    9713234970,
    9713234969,
    9713234968,
    9713234967,
    9713234966,
    9713234965,
    9713234964,
    9713234963,
    9713234962,
    9713234961,
    9713234960,
    9713234959,
    9713234958,
    9713234957,
    9713234956,
    9713234955,
    9713234954,
    9713234953,
    9713234952,
    9713234951,
    9713234950,
    9713234949,
    9713234948,
    9713234947,
    9713234946,
    9713234945,
    9713234975
  ],
  "tags": {
    "amenity": "prison",
    "name": "diistrict prision"
  }
},
{
  "type": "way",
  "id": 1062586087,
  "nodes": [
    9761578297,
    9761578296,
    9761578295,
    9761578294,
    9761578297
  ],
  "tags": {
    "amenity": "prison",
    "barrier": "wall"
  }
},
{
  "type": "way",
  "id": 1062891683,
  "nodes": [
    9764124680,
    9764124683,
    9764124656,
    9764124684,
    9764124709,
    9764124654,
    9764124710,
    9764124641,
    9764124686,
    9764124640,
    9764124687,
    9764124638,
    9764124688,
    9764124636,
    9764124635,
    9556232773,
    9764049490,
    9804408973,
    9804408967,
    9804408977,
    9556232759,
    9558345694,
    9556234268,
    9556234274,
    9556234276,
    9556234286,
    9556234289,
    9764124705,
    9764124663,
    9764124703,
    9764124680
  ],
  "tags": {
    "addr:city": "Islampur",
    "addr:postcode": "733202",
    "addr:street": "Newtown Road",
    "amenity": "prison",
    "name": "Islampur Jail",
    "operator": "Government of West Bengal",
    "operator:type": "government"
  }
},
{
  "type": "way",
  "id": 1074582228,
  "nodes": [
    9856230971,
    9856230969,
    9856230968,
    9856230970,
    9856230971
  ],
  "tags": {
    "amenity": "prison"
  }
},
{
  "type": "way",
  "id": 1093731986,
  "nodes": [
    10017489623,
    10017489624,
    10017489625,
    10017489626,
    10017489623
  ],
  "tags": {
    "amenity": "prison",
    "name": "拉萨市公安局监所管理支队看守所"
  }
},
{
  "type": "way",
  "id": 1099848077,
  "nodes": [
    10068664854,
    10068664855,
    10068664865,
    10068664856,
    10068664857,
    10068664858,
    10068664859,
    10068664860,
    10068664861,
    10068664862,
    10068664863,
    10068664864,
    10068664854
  ],
  "tags": {
    "amenity": "prison",
    "barrier": "wall"
  }
},
{
  "type": "way",
  "id": 1107692277,
  "nodes": [
    10135132623,
    10135132624,
    10135132625,
    10135132626,
    10135132627,
    10135132628,
    10135132629,
    10135132623
  ],
  "tags": {
    "amenity": "prison",
    "name": "Lungzor Jail"
  }
},
{
  "type": "way",
  "id": 1111604485,
  "nodes": [
    10169954105,
    10169954106,
    10169954107,
    10169954108,
    10169954105
  ],
  "tags": {
    "amenity": "prison"
  }
},
{
  "type": "way",
  "id": 1116077421,
  "nodes": [
    10207984112,
    10207984111,
    10207984110,
    10207984109,
    10207984108,
    10207984107,
    10207984112
  ],
  "tags": {
    "amenity": "prison"
  }
},
{
  "type": "way",
  "id": 1133268717,
  "nodes": [
    10565932589,
    10565932588,
    10565932587,
    10565932586,
    10565932589
  ],
  "tags": {
    "amenity": "prison"
  }
},
{
  "type": "way",
  "id": 1237979876,
  "nodes": [
    11499402259,
    11499402257,
    11499402256,
    11499402258,
    11499402259
  ],
  "tags": {
    "amenity": "prison"
  }
},
{
  "type": "way",
  "id": 1237989907,
  "nodes": [
    11499503671,
    11499503670,
    11499503669,
    11499452768,
    11499452767,
    11499452766,
    11499452765,
    11499452764,
    11499503671
  ],
  "tags": {
    "amenity": "prison"
  }
},
{
  "type": "way",
  "id": 1281261617,
  "nodes": [
    11892116904,
    11892116905,
    11892116906,
    11892116907,
    11892116912,
    11892116904
  ],
  "tags": {
    "amenity": "prison"
  }
},
{
  "type": "way",
  "id": 1314910493,
  "nodes": [
    12170451177,
    12170451178,
    12170451179,
    12170451180,
    12170451177
  ],
  "tags": {
    "amenity": "prison",
    "barrier": "wall"
  }
},
{
  "type": "way",
  "id": 1315429226,
  "nodes": [
    12175797673,
    12175797674,
    12175797675,
    12175797676,
    12175797673
  ],
  "tags": {
    "amenity": "prison",
    "barrier": "wall"
  }
},
{
  "type": "way",
  "id": 1358361649,
  "nodes": [
    12571263298,
    12571263297,
    12571263296,
    12571263295,
    12571263294,
    12571263293,
    12571263292,
    12571263291,
    12571263290,
    12571263289,
    12571263288,
    12571263287,
    12571263286,
    12571263285,
    12571263284,
    12571263283,
    12571263282,
    12571263281,
    12571263280,
    12571263279,
    12571263278,
    12571263277,
    12571263276,
    12571263275,
    12571263274,
    12571263273,
    12571263272,
    12571263298
  ],
  "tags": {
    "addr:city": "Jalpaiguri",
    "addr:postcode": "735101",
    "addr:street": "Netaji Subhash Chandra Bose Rd",
    "amenity": "prison",
    "name": "Jalpaiguri Central Correctional Home",
    "name:bn": "জল্পাইগুড়ি জেলা সংশোধনাগার"
  }
},
{
  "type": "way",
  "id": 1429501993,
  "nodes": [
    13140857034,
    13140857033,
    13140857032,
    13140857031,
    13140857034
  ],
  "tags": {
    "alt_name": "Zhamu Prison,;Bomi Prison",
    "amenity": "prison",
    "name:en": "Powo Tramo Prison Area no.1",
    "source": "esriWorld"
  }
},
{
  "type": "node",
  "id": 9856230970,
  "lat": 27.5546230,
  "lon": 78.6522388
},
{
  "type": "node",
  "id": 9856230971,
  "lat": 27.5545469,
  "lon": 78.6531132
},
{
  "type": "node",
  "id": 9856230968,
  "lat": 27.5551960,
  "lon": 78.6523023
},
{
  "type": "node",
  "id": 9856230969,
  "lat": 27.5551199,
  "lon": 78.6531767
},
{
  "type": "node",
  "id": 4518337164,
  "lat": 26.7877168,
  "lon": 79.0186033
},
{
  "type": "node",
  "id": 4518337165,
  "lat": 26.7871948,
  "lon": 79.0191934
},
{
  "type": "node",
  "id": 4518337166,
  "lat": 26.7865962,
  "lon": 79.0191773
},
{
  "type": "node",
  "id": 4518337168,
  "lat": 26.7855618,
  "lon": 79.0178040
},
{
  "type": "node",
  "id": 4518337169,
  "lat": 26.7855654,
  "lon": 79.0167633
},
{
  "type": "node",
  "id": 4518337170,
  "lat": 26.7872714,
  "lon": 79.0169028
},
{
  "type": "node",
  "id": 4518337171,
  "lat": 26.7875240,
  "lon": 79.0168183
},
{
  "type": "node",
  "id": 4518337172,
  "lat": 26.7875204,
  "lon": 79.0168948
},
{
  "type": "node",
  "id": 4518337184,
  "lat": 26.7866058,
  "lon": 79.0190593
},
{
  "type": "node",
  "id": 8432787412,
  "lat": 26.7865630,
  "lon": 79.0178360
},
{
  "type": "node",
  "id": 8432787413,
  "lat": 26.7865606,
  "lon": 79.0181324
},
{
  "type": "node",
  "id": 8432787414,
  "lat": 26.7866120,
  "lon": 79.0181364
},
{
  "type": "node",
  "id": 8432787415,
  "lat": 26.7875818,
  "lon": 79.0169509
},
{
  "type": "node",
  "id": 4518337163,
  "lat": 26.7880520,
  "lon": 79.0169457
},
{
  "type": "node",
  "id": 571371334,
  "lat": 26.4795718,
  "lon": 80.3565579
},
{
  "type": "node",
  "id": 571371337,
  "lat": 26.4783042,
  "lon": 80.3555494
},
{
  "type": "node",
  "id": 571371340,
  "lat": 26.4778048,
  "lon": 80.3554207
},
{
  "type": "node",
  "id": 571371342,
  "lat": 26.4772862,
  "lon": 80.3561931
},
{
  "type": "node",
  "id": 571371343,
  "lat": 26.4775167,
  "lon": 80.3565579
},
{
  "type": "node",
  "id": 571371344,
  "lat": 26.4789380,
  "lon": 80.3576523
},
{
  "type": "node",
  "id": 4557044576,
  "lat": 26.5601704,
  "lon": 80.4827929
},
{
  "type": "node",
  "id": 4557044578,
  "lat": 26.5643244,
  "lon": 80.4826400
},
{
  "type": "node",
  "id": 4557044579,
  "lat": 26.5628034,
  "lon": 80.4804728
},
{
  "type": "node",
  "id": 4557044577,
  "lat": 26.5617034,
  "lon": 80.4849547
},
{
  "type": "node",
  "id": 4510542458,
  "lat": 27.8819840,
  "lon": 79.9144862
},
{
  "type": "node",
  "id": 4510542459,
  "lat": 27.8814598,
  "lon": 79.9161266
},
{
  "type": "node",
  "id": 4510542457,
  "lat": 27.8834143,
  "lon": 79.9150702
},
{
  "type": "node",
  "id": 4510542460,
  "lat": 27.8828641,
  "lon": 79.9167186
},
{
  "type": "node",
  "id": 2876607209,
  "lat": 29.3733431,
  "lon": 78.1303429
},
{
  "type": "node",
  "id": 2876607211,
  "lat": 29.3735467,
  "lon": 78.1296556
},
{
  "type": "node",
  "id": 2876607220,
  "lat": 29.3742215,
  "lon": 78.1282261
},
{
  "type": "node",
  "id": 2876607232,
  "lat": 29.3752038,
  "lon": 78.1311814
},
{
  "type": "node",
  "id": 2876607242,
  "lat": 29.3763537,
  "lon": 78.1292066
},
{
  "type": "node",
  "id": 1429008929,
  "lat": 28.3444428,
  "lon": 79.4124359
},
{
  "type": "node",
  "id": 1429008935,
  "lat": 28.3457791,
  "lon": 79.4105107
},
{
  "type": "node",
  "id": 1429008943,
  "lat": 28.3465477,
  "lon": 79.4103221
},
{
  "type": "node",
  "id": 1429008947,
  "lat": 28.3474560,
  "lon": 79.4151651
},
{
  "type": "node",
  "id": 1429008969,
  "lat": 28.3491417,
  "lon": 79.4127634
},
{
  "type": "node",
  "id": 1429009997,
  "lat": 28.3905908,
  "lon": 79.4124906
},
{
  "type": "node",
  "id": 1429009988,
  "lat": 28.3897161,
  "lon": 79.4173639
},
{
  "type": "node",
  "id": 3587844074,
  "lat": 28.3926565,
  "lon": 79.4180633
},
{
  "type": "node",
  "id": 3587844075,
  "lat": 28.3926744,
  "lon": 79.4179628
},
{
  "type": "node",
  "id": 9301743887,
  "lat": 28.3922651,
  "lon": 79.4188074
},
{
  "type": "node",
  "id": 9301743888,
  "lat": 28.3934532,
  "lon": 79.4188464
},
{
  "type": "node",
  "id": 9301743890,
  "lat": 28.3924905,
  "lon": 79.4214374
},
{
  "type": "node",
  "id": 1429010068,
  "lat": 28.3974140,
  "lon": 79.4139967
},
{
  "type": "node",
  "id": 3587844076,
  "lat": 28.3941226,
  "lon": 79.4134028
},
{
  "type": "node",
  "id": 3587844077,
  "lat": 28.3941665,
  "lon": 79.4131984
},
{
  "type": "node",
  "id": 1429010066,
  "lat": 28.3964107,
  "lon": 79.4189865
},
{
  "type": "node",
  "id": 9301743889,
  "lat": 28.3937316,
  "lon": 79.4217431
},
{
  "type": "node",
  "id": 9301777585,
  "lat": 28.8197715,
  "lon": 79.0319699
},
{
  "type": "node",
  "id": 9301777586,
  "lat": 28.8199595,
  "lon": 79.0327316
},
{
  "type": "node",
  "id": 9301777587,
  "lat": 28.8205516,
  "lon": 79.0330750
},
{
  "type": "node",
  "id": 9301777588,
  "lat": 28.8211391,
  "lon": 79.0328872
},
{
  "type": "node",
  "id": 9301777589,
  "lat": 28.8214493,
  "lon": 79.0330750
},
{
  "type": "node",
  "id": 9301777590,
  "lat": 28.8220697,
  "lon": 79.0317285
},
{
  "type": "node",
  "id": 9301777591,
  "lat": 28.8213412,
  "lon": 79.0313744
},
{
  "type": "node",
  "id": 9301777592,
  "lat": 28.8203166,
  "lon": 79.0307522
},
{
  "type": "node",
  "id": 7220848281,
  "lat": 29.0345517,
  "lon": 79.6755246
},
{
  "type": "node",
  "id": 7220848282,
  "lat": 29.0346573,
  "lon": 79.6756506
},
{
  "type": "node",
  "id": 7220848283,
  "lat": 29.0346713,
  "lon": 79.6758008
},
{
  "type": "node",
  "id": 7220848284,
  "lat": 29.0341953,
  "lon": 79.6777830
},
{
  "type": "node",
  "id": 7220848285,
  "lat": 29.0341366,
  "lon": 79.6778527
},
{
  "type": "node",
  "id": 7220848286,
  "lat": 29.0339748,
  "lon": 79.6779385
},
{
  "type": "node",
  "id": 7220848287,
  "lat": 29.0303445,
  "lon": 79.6767423
},
{
  "type": "node",
  "id": 7220848288,
  "lat": 29.0302835,
  "lon": 79.6765438
},
{
  "type": "node",
  "id": 7220848289,
  "lat": 29.0307479,
  "lon": 79.6745482
},
{
  "type": "node",
  "id": 7220848290,
  "lat": 29.0308604,
  "lon": 79.6743927
},
{
  "type": "node",
  "id": 7220848291,
  "lat": 29.0310340,
  "lon": 79.6743980
},
{
  "type": "node",
  "id": 8370140982,
  "lat": 29.2147227,
  "lon": 79.5194661
},
{
  "type": "node",
  "id": 8370140983,
  "lat": 29.2154584,
  "lon": 79.5201573
},
{
  "type": "node",
  "id": 8370140984,
  "lat": 29.2148450,
  "lon": 79.5210072
},
{
  "type": "node",
  "id": 8370140985,
  "lat": 29.2141174,
  "lon": 79.5203324
},
{
  "type": "node",
  "id": 8370140986,
  "lat": 29.2141541,
  "lon": 79.5202600
},
{
  "type": "node",
  "id": 10565932588,
  "lat": 29.9768426,
  "lon": 78.0598220
},
{
  "type": "node",
  "id": 10565932589,
  "lat": 29.9781038,
  "lon": 78.0575939
},
{
  "type": "node",
  "id": 10565932587,
  "lat": 29.9786198,
  "lon": 78.0619178
},
{
  "type": "node",
  "id": 10565932586,
  "lat": 29.9801962,
  "lon": 78.0591051
},
{
  "type": "node",
  "id": 4985284890,
  "lat": 30.3779774,
  "lon": 78.4292817
},
{
  "type": "node",
  "id": 4985284897,
  "lat": 30.3776038,
  "lon": 78.4291935
},
{
  "type": "node",
  "id": 4987584181,
  "lat": 30.3782222,
  "lon": 78.4287172
},
{
  "type": "node",
  "id": 4987584182,
  "lat": 30.3783680,
  "lon": 78.4288448
},
{
  "type": "node",
  "id": 4987584183,
  "lat": 30.3784203,
  "lon": 78.4289532
},
{
  "type": "node",
  "id": 4987584184,
  "lat": 30.3783625,
  "lon": 78.4291701
},
{
  "type": "node",
  "id": 4987584185,
  "lat": 30.3783102,
  "lon": 78.4293328
},
{
  "type": "node",
  "id": 4987584186,
  "lat": 30.3781396,
  "lon": 78.4293041
},
{
  "type": "node",
  "id": 4987584188,
  "lat": 30.3777885,
  "lon": 78.4292371
},
{
  "type": "node",
  "id": 4987584190,
  "lat": 30.3774874,
  "lon": 78.4291606
},
{
  "type": "node",
  "id": 4987584191,
  "lat": 30.3773691,
  "lon": 78.4291893
},
{
  "type": "node",
  "id": 4987584192,
  "lat": 30.3773168,
  "lon": 78.4292052
},
{
  "type": "node",
  "id": 4987584193,
  "lat": 30.3771983,
  "lon": 78.4291382
},
{
  "type": "node",
  "id": 4987584194,
  "lat": 30.3771350,
  "lon": 78.4290681
},
{
  "type": "node",
  "id": 4987584195,
  "lat": 30.3771047,
  "lon": 78.4289787
},
{
  "type": "node",
  "id": 4987584196,
  "lat": 30.3771983,
  "lon": 78.4288256
},
{
  "type": "node",
  "id": 4987584197,
  "lat": 30.3773084,
  "lon": 78.4287236
},
{
  "type": "node",
  "id": 4987584198,
  "lat": 30.3774570,
  "lon": 78.4286789
},
{
  "type": "node",
  "id": 4987584199,
  "lat": 30.3776716,
  "lon": 78.4286853
},
{
  "type": "node",
  "id": 4987584200,
  "lat": 30.3778395,
  "lon": 78.4286470
},
{
  "type": "node",
  "id": 4987584201,
  "lat": 30.3780211,
  "lon": 78.4286630
},
{
  "type": "node",
  "id": 4987584202,
  "lat": 30.3781669,
  "lon": 78.4287012
},
{
  "type": "node",
  "id": 6167805068,
  "lat": 30.3780128,
  "lon": 78.4292866
},
{
  "type": "node",
  "id": 6588506546,
  "lat": 30.3509057,
  "lon": 79.3187665
},
{
  "type": "node",
  "id": 6588506547,
  "lat": 30.3508432,
  "lon": 79.3186082
},
{
  "type": "node",
  "id": 6588506548,
  "lat": 30.3512483,
  "lon": 79.3184017
},
{
  "type": "node",
  "id": 6588506549,
  "lat": 30.3513872,
  "lon": 79.3186002
},
{
  "type": "node",
  "id": 6588506550,
  "lat": 30.3514219,
  "lon": 79.3186002
},
{
  "type": "node",
  "id": 6588506551,
  "lat": 30.3515746,
  "lon": 79.3190776
},
{
  "type": "node",
  "id": 6588506552,
  "lat": 30.3516557,
  "lon": 79.3194021
},
{
  "type": "node",
  "id": 6588506553,
  "lat": 30.3516395,
  "lon": 79.3196570
},
{
  "type": "node",
  "id": 6588506554,
  "lat": 30.3515260,
  "lon": 79.3196999
},
{
  "type": "node",
  "id": 6588506555,
  "lat": 30.3513802,
  "lon": 79.3195953
},
{
  "type": "node",
  "id": 6588506556,
  "lat": 30.3511326,
  "lon": 79.3195684
},
{
  "type": "node",
  "id": 6588506557,
  "lat": 30.3509613,
  "lon": 79.3193941
},
{
  "type": "node",
  "id": 6588506558,
  "lat": 30.3507298,
  "lon": 79.3195979
},
{
  "type": "node",
  "id": 6588506559,
  "lat": 30.3503178,
  "lon": 79.3198072
},
{
  "type": "node",
  "id": 6588506560,
  "lat": 30.3501789,
  "lon": 79.3191956
},
{
  "type": "node",
  "id": 6588506561,
  "lat": 30.3503641,
  "lon": 79.3190535
},
{
  "type": "node",
  "id": 8920541149,
  "lat": 33.3823615,
  "lon": 79.7272171
},
{
  "type": "node",
  "id": 8920541150,
  "lat": 33.3821005,
  "lon": 79.7277530
},
{
  "type": "node",
  "id": 8920541151,
  "lat": 33.3820019,
  "lon": 79.7273415
},
{
  "type": "node",
  "id": 8920541152,
  "lat": 33.3824574,
  "lon": 79.7276414
},
{
  "type": "node",
  "id": 8920541183,
  "lat": 33.3824486,
  "lon": 79.7290977
},
{
  "type": "node",
  "id": 8920541184,
  "lat": 33.3820886,
  "lon": 79.7292114
},
{
  "type": "node",
  "id": 8920541185,
  "lat": 33.3821880,
  "lon": 79.7296056
},
{
  "type": "node",
  "id": 8920541186,
  "lat": 33.3825503,
  "lon": 79.7294892
},
{
  "type": "node",
  "id": 1021082306,
  "lat": 26.0579784,
  "lon": 83.1843104
},
{
  "type": "node",
  "id": 1021083952,
  "lat": 26.0584317,
  "lon": 83.1831601
},
{
  "type": "node",
  "id": 1021087919,
  "lat": 26.0577936,
  "lon": 83.1830501
},
{
  "type": "node",
  "id": 1021088652,
  "lat": 26.0584338,
  "lon": 83.1831003
},
{
  "type": "node",
  "id": 1021088747,
  "lat": 26.0597870,
  "lon": 83.1832681
},
{
  "type": "node",
  "id": 1021089788,
  "lat": 26.0587991,
  "lon": 83.1843846
},
{
  "type": "node",
  "id": 1021090202,
  "lat": 26.0579870,
  "lon": 83.1840091
},
{
  "type": "node",
  "id": 1021091205,
  "lat": 26.0597299,
  "lon": 83.1841800
},
{
  "type": "node",
  "id": 1021091249,
  "lat": 26.0577399,
  "lon": 83.1839900
},
{
  "type": "node",
  "id": 1021093137,
  "lat": 26.0588163,
  "lon": 83.1840904
},
{
  "type": "node",
  "id": 11499402257,
  "lat": 26.2268673,
  "lon": 84.3508792
},
{
  "type": "node",
  "id": 11499402258,
  "lat": 26.2290955,
  "lon": 84.3500340
},
{
  "type": "node",
  "id": 11499402259,
  "lat": 26.2272573,
  "lon": 84.3494224
},
{
  "type": "node",
  "id": 11499402256,
  "lat": 26.2287055,
  "lon": 84.3514908
},
{
  "type": "node",
  "id": 11499452764,
  "lat": 26.1154224,
  "lon": 85.8946967
},
{
  "type": "node",
  "id": 11499452765,
  "lat": 26.1162749,
  "lon": 85.8947504
},
{
  "type": "node",
  "id": 11499452766,
  "lat": 26.1164122,
  "lon": 85.8944821
},
{
  "type": "node",
  "id": 11499452767,
  "lat": 26.1173466,
  "lon": 85.8946726
},
{
  "type": "node",
  "id": 11499452768,
  "lat": 26.1177657,
  "lon": 85.8956811
},
{
  "type": "node",
  "id": 11499503669,
  "lat": 26.1177633,
  "lon": 85.8971885
},
{
  "type": "node",
  "id": 11499503670,
  "lat": 26.1155548,
  "lon": 85.8973521
},
{
  "type": "node",
  "id": 11499503671,
  "lat": 26.1154585,
  "lon": 85.8956999
},
{
  "type": "node",
  "id": 5796433316,
  "lat": 26.2499746,
  "lon": 86.2770232
},
{
  "type": "node",
  "id": 5796433315,
  "lat": 26.2500677,
  "lon": 86.2785529
},
{
  "type": "node",
  "id": 5796433313,
  "lat": 26.2508273,
  "lon": 86.2769454
},
{
  "type": "node",
  "id": 5796433314,
  "lat": 26.2508931,
  "lon": 86.2784751
},
{
  "type": "node",
  "id": 2249300131,
  "lat": 26.7347393,
  "lon": 81.0540835
},
{
  "type": "node",
  "id": 2249300160,
  "lat": 26.7348090,
  "lon": 81.0544408
},
{
  "type": "node",
  "id": 2249463613,
  "lat": 26.7347945,
  "lon": 81.0544713
},
{
  "type": "node",
  "id": 2249299466,
  "lat": 26.7294868,
  "lon": 81.0600580
},
{
  "type": "node",
  "id": 2249299468,
  "lat": 26.7296587,
  "lon": 81.0596869
},
{
  "type": "node",
  "id": 2249299473,
  "lat": 26.7301155,
  "lon": 81.0601680
},
{
  "type": "node",
  "id": 2249299476,
  "lat": 26.7303853,
  "lon": 81.0599904
},
{
  "type": "node",
  "id": 2249299493,
  "lat": 26.7310486,
  "lon": 81.0587576
},
{
  "type": "node",
  "id": 2249299501,
  "lat": 26.7311959,
  "lon": 81.0585046
},
{
  "type": "node",
  "id": 2249299526,
  "lat": 26.7314955,
  "lon": 81.0579740
},
{
  "type": "node",
  "id": 2249299532,
  "lat": 26.7315962,
  "lon": 81.0580345
},
{
  "type": "node",
  "id": 2249299555,
  "lat": 26.7318933,
  "lon": 81.0613642
},
{
  "type": "node",
  "id": 2249299562,
  "lat": 26.7319866,
  "lon": 81.0575148
},
{
  "type": "node",
  "id": 2249299582,
  "lat": 26.7322150,
  "lon": 81.0554912
},
{
  "type": "node",
  "id": 2249299592,
  "lat": 26.7323083,
  "lon": 81.0551998
},
{
  "type": "node",
  "id": 2249299594,
  "lat": 26.7323255,
  "lon": 81.0555242
},
{
  "type": "node",
  "id": 2249299600,
  "lat": 26.7323697,
  "lon": 81.0565608
},
{
  "type": "node",
  "id": 2249299604,
  "lat": 26.7323893,
  "lon": 81.0561373
},
{
  "type": "node",
  "id": 2249299612,
  "lat": 26.7324360,
  "lon": 81.0562693
},
{
  "type": "node",
  "id": 2249299621,
  "lat": 26.7325170,
  "lon": 81.0557442
},
{
  "type": "node",
  "id": 2249299631,
  "lat": 26.7326202,
  "lon": 81.0554445
},
{
  "type": "node",
  "id": 2249299645,
  "lat": 26.7327208,
  "lon": 81.0551420
},
{
  "type": "node",
  "id": 2249299757,
  "lat": 26.7333823,
  "lon": 81.0559082
},
{
  "type": "node",
  "id": 2249299860,
  "lat": 26.7338136,
  "lon": 81.0559476
},
{
  "type": "node",
  "id": 2249299907,
  "lat": 26.7339093,
  "lon": 81.0562631
},
{
  "type": "node",
  "id": 2249300116,
  "lat": 26.7346954,
  "lon": 81.0588271
},
{
  "type": "node",
  "id": 2249300198,
  "lat": 26.7349406,
  "lon": 81.0588620
},
{
  "type": "node",
  "id": 2249463591,
  "lat": 26.7316788,
  "lon": 81.0582423
},
{
  "type": "node",
  "id": 2249463592,
  "lat": 26.7317137,
  "lon": 81.0581939
},
{
  "type": "node",
  "id": 2249463595,
  "lat": 26.7332964,
  "lon": 81.0560272
},
{
  "type": "node",
  "id": 2249463596,
  "lat": 26.7333268,
  "lon": 81.0559829
},
{
  "type": "node",
  "id": 2249463599,
  "lat": 26.7338625,
  "lon": 81.0562340
},
{
  "type": "node",
  "id": 2249463603,
  "lat": 26.7339311,
  "lon": 81.0562191
},
{
  "type": "node",
  "id": 2249463608,
  "lat": 26.7347205,
  "lon": 81.0587782
},
{
  "type": "node",
  "id": 2249463609,
  "lat": 26.7347359,
  "lon": 81.0588532
},
{
  "type": "node",
  "id": 2249463616,
  "lat": 26.7351645,
  "lon": 81.0613394
},
{
  "type": "node",
  "id": 2249463618,
  "lat": 26.7351997,
  "lon": 81.0612926
},
{
  "type": "node",
  "id": 2249299569,
  "lat": 26.7320357,
  "lon": 81.0626645
},
{
  "type": "node",
  "id": 2249299575,
  "lat": 26.7321257,
  "lon": 81.0615741
},
{
  "type": "node",
  "id": 2249299608,
  "lat": 26.7324151,
  "lon": 81.0618355
},
{
  "type": "node",
  "id": 2249299734,
  "lat": 26.7332690,
  "lon": 81.0638978
},
{
  "type": "node",
  "id": 2249299786,
  "lat": 26.7335459,
  "lon": 81.0641190
},
{
  "type": "node",
  "id": 2249299879,
  "lat": 26.7338425,
  "lon": 81.0631354
},
{
  "type": "node",
  "id": 2249299931,
  "lat": 26.7340324,
  "lon": 81.0633179
},
{
  "type": "node",
  "id": 2249300042,
  "lat": 26.7344921,
  "lon": 81.0637402
},
{
  "type": "node",
  "id": 2249300103,
  "lat": 26.7346497,
  "lon": 81.0638842
},
{
  "type": "node",
  "id": 2249300241,
  "lat": 26.7350392,
  "lon": 81.0642403
},
{
  "type": "node",
  "id": 2249300277,
  "lat": 26.7352313,
  "lon": 81.0644109
},
{
  "type": "node",
  "id": 2249463598,
  "lat": 26.7338578,
  "lon": 81.0631153
},
{
  "type": "node",
  "id": 2249463607,
  "lat": 26.7340474,
  "lon": 81.0633309
},
{
  "type": "node",
  "id": 2249463617,
  "lat": 26.7351885,
  "lon": 81.0643713
},
{
  "type": "node",
  "id": 2249300422,
  "lat": 26.7360846,
  "lon": 81.0600980
},
{
  "type": "node",
  "id": 2249300431,
  "lat": 26.7361720,
  "lon": 81.0555007
},
{
  "type": "node",
  "id": 2249300440,
  "lat": 26.7362003,
  "lon": 81.0599921
},
{
  "type": "node",
  "id": 2249300463,
  "lat": 26.7363314,
  "lon": 81.0602185
},
{
  "type": "node",
  "id": 2249300494,
  "lat": 26.7364729,
  "lon": 81.0554362
},
{
  "type": "node",
  "id": 2249300501,
  "lat": 26.7364861,
  "lon": 81.0599733
},
{
  "type": "node",
  "id": 2249300651,
  "lat": 26.7369542,
  "lon": 81.0601653
},
{
  "type": "node",
  "id": 2249300737,
  "lat": 26.7375156,
  "lon": 81.0612946
},
{
  "type": "node",
  "id": 2249300838,
  "lat": 26.7379737,
  "lon": 81.0607777
},
{
  "type": "node",
  "id": 2249300919,
  "lat": 26.7391346,
  "lon": 81.0602010
},
{
  "type": "node",
  "id": 2249463623,
  "lat": 26.7360836,
  "lon": 81.0600724
},
{
  "type": "node",
  "id": 2249463627,
  "lat": 26.7361489,
  "lon": 81.0555458
},
{
  "type": "node",
  "id": 2249463632,
  "lat": 26.7363391,
  "lon": 81.0602251
},
{
  "type": "node",
  "id": 2249463634,
  "lat": 26.7374931,
  "lon": 81.0612721
},
{
  "type": "node",
  "id": 2249300379,
  "lat": 26.7358860,
  "lon": 81.0659996
},
{
  "type": "node",
  "id": 2249300429,
  "lat": 26.7361597,
  "lon": 81.0633054
},
{
  "type": "node",
  "id": 2249300533,
  "lat": 26.7366156,
  "lon": 81.0637165
},
{
  "type": "node",
  "id": 2249300618,
  "lat": 26.7367699,
  "lon": 81.0638548
},
{
  "type": "node",
  "id": 2249300690,
  "lat": 26.7371768,
  "lon": 81.0642197
},
{
  "type": "node",
  "id": 2249300727,
  "lat": 26.7373712,
  "lon": 81.0643956
},
{
  "type": "node",
  "id": 2249300828,
  "lat": 26.7379290,
  "lon": 81.0646139
},
{
  "type": "node",
  "id": 2249300921,
  "lat": 26.7391853,
  "lon": 81.0618679
},
{
  "type": "node",
  "id": 2249300986,
  "lat": 26.7410130,
  "lon": 81.0625353
},
{
  "type": "node",
  "id": 2249301015,
  "lat": 26.7426090,
  "lon": 81.0603027
},
{
  "type": "node",
  "id": 2249301028,
  "lat": 26.7432449,
  "lon": 81.0603192
},
{
  "type": "node",
  "id": 2249301032,
  "lat": 26.7435985,
  "lon": 81.0607537
},
{
  "type": "node",
  "id": 2272440216,
  "lat": 26.9392135,
  "lon": 81.1849757
},
{
  "type": "node",
  "id": 2272440220,
  "lat": 26.9392322,
  "lon": 81.1848664
},
{
  "type": "node",
  "id": 2272440236,
  "lat": 26.9413422,
  "lon": 81.1833792
},
{
  "type": "node",
  "id": 2272440238,
  "lat": 26.9414480,
  "lon": 81.1833978
},
{
  "type": "node",
  "id": 2272440242,
  "lat": 26.9427924,
  "lon": 81.1858694
},
{
  "type": "node",
  "id": 2272440243,
  "lat": 26.9428152,
  "lon": 81.1857438
},
{
  "type": "node",
  "id": 2272440232,
  "lat": 26.9406098,
  "lon": 81.1873775
},
{
  "type": "node",
  "id": 2272440234,
  "lat": 26.9406783,
  "lon": 81.1873682
},
{
  "type": "node",
  "id": 7877577016,
  "lat": 26.7745404,
  "lon": 82.1379840
},
{
  "type": "node",
  "id": 7877577017,
  "lat": 26.7731829,
  "lon": 82.1410049
},
{
  "type": "node",
  "id": 7877577018,
  "lat": 26.7709755,
  "lon": 82.1397602
},
{
  "type": "node",
  "id": 7877577019,
  "lat": 26.7723335,
  "lon": 82.1367396
},
{
  "type": "node",
  "id": 9153216051,
  "lat": 27.1193646,
  "lon": 81.9387442
},
{
  "type": "node",
  "id": 9153216052,
  "lat": 27.1210692,
  "lon": 81.9388246
},
{
  "type": "node",
  "id": 9153216053,
  "lat": 27.1211551,
  "lon": 81.9389641
},
{
  "type": "node",
  "id": 9153216059,
  "lat": 27.1192930,
  "lon": 81.9387603
},
{
  "type": "node",
  "id": 9153216054,
  "lat": 27.1209450,
  "lon": 81.9423652
},
{
  "type": "node",
  "id": 9153216055,
  "lat": 27.1208782,
  "lon": 81.9424403
},
{
  "type": "node",
  "id": 9153216056,
  "lat": 27.1186818,
  "lon": 81.9423652
},
{
  "type": "node",
  "id": 9153216057,
  "lat": 27.1185768,
  "lon": 81.9422096
},
{
  "type": "node",
  "id": 9153216058,
  "lat": 27.1186914,
  "lon": 81.9399297
},
{
  "type": "node",
  "id": 7801389277,
  "lat": 27.9478339,
  "lon": 80.7825029
},
{
  "type": "node",
  "id": 7801389278,
  "lat": 27.9473979,
  "lon": 80.7832378
},
{
  "type": "node",
  "id": 7801389279,
  "lat": 27.9469335,
  "lon": 80.7828838
},
{
  "type": "node",
  "id": 7801389280,
  "lat": 27.9464217,
  "lon": 80.7835597
},
{
  "type": "node",
  "id": 7801389281,
  "lat": 27.9466492,
  "lon": 80.7839405
},
{
  "type": "node",
  "id": 7801389282,
  "lat": 27.9467487,
  "lon": 80.7860005
},
{
  "type": "node",
  "id": 7801389283,
  "lat": 27.9469999,
  "lon": 80.7862794
},
{
  "type": "node",
  "id": 7801389273,
  "lat": 27.9485352,
  "lon": 80.7847720
},
{
  "type": "node",
  "id": 7801389274,
  "lat": 27.9483552,
  "lon": 80.7847667
},
{
  "type": "node",
  "id": 7801389275,
  "lat": 27.9482035,
  "lon": 80.7837743
},
{
  "type": "node",
  "id": 7801389276,
  "lat": 27.9484689,
  "lon": 80.7829857
},
{
  "type": "node",
  "id": 7801389284,
  "lat": 27.9485163,
  "lon": 80.7862312
},
{
  "type": "node",
  "id": 6154121552,
  "lat": 27.5676630,
  "lon": 81.6030282
},
{
  "type": "node",
  "id": 6154121553,
  "lat": 27.5668308,
  "lon": 81.6033715
},
{
  "type": "node",
  "id": 6154121554,
  "lat": 27.5667737,
  "lon": 81.6034359
},
{
  "type": "node",
  "id": 6154121560,
  "lat": 27.5677296,
  "lon": 81.6030443
},
{
  "type": "node",
  "id": 6154121555,
  "lat": 27.5676059,
  "lon": 81.6061342
},
{
  "type": "node",
  "id": 6154121556,
  "lat": 27.5676678,
  "lon": 81.6061878
},
{
  "type": "node",
  "id": 6154121559,
  "lat": 27.5684429,
  "lon": 81.6054153
},
{
  "type": "node",
  "id": 6154121557,
  "lat": 27.5684667,
  "lon": 81.6058713
},
{
  "type": "node",
  "id": 6154121558,
  "lat": 27.5683858,
  "lon": 81.6055924
},
{
  "type": "node",
  "id": 6216477846,
  "lat": 26.7792857,
  "lon": 82.7246118
},
{
  "type": "node",
  "id": 6216477847,
  "lat": 26.7795914,
  "lon": 82.7246342
},
{
  "type": "node",
  "id": 6216477848,
  "lat": 26.7797076,
  "lon": 82.7247840
},
{
  "type": "node",
  "id": 6216477849,
  "lat": 26.7796781,
  "lon": 82.7255485
},
{
  "type": "node",
  "id": 6216477862,
  "lat": 26.7777669,
  "lon": 82.7247464
},
{
  "type": "node",
  "id": 6216477863,
  "lat": 26.7778852,
  "lon": 82.7246374
},
{
  "type": "node",
  "id": 6216477864,
  "lat": 26.7778073,
  "lon": 82.7246686
},
{
  "type": "node",
  "id": 6216477865,
  "lat": 26.7792680,
  "lon": 82.7246913
},
{
  "type": "node",
  "id": 6216477866,
  "lat": 26.7796704,
  "lon": 82.7246951
},
{
  "type": "node",
  "id": 6216477867,
  "lat": 26.7796086,
  "lon": 82.7255488
},
{
  "type": "node",
  "id": 6216477871,
  "lat": 26.7796064,
  "lon": 82.7256005
},
{
  "type": "node",
  "id": 6216477872,
  "lat": 26.7795952,
  "lon": 82.7259515
},
{
  "type": "node",
  "id": 6216477850,
  "lat": 26.7795682,
  "lon": 82.7266240
},
{
  "type": "node",
  "id": 6216477851,
  "lat": 26.7795489,
  "lon": 82.7267137
},
{
  "type": "node",
  "id": 6216477852,
  "lat": 26.7794855,
  "lon": 82.7267691
},
{
  "type": "node",
  "id": 6216477853,
  "lat": 26.7796266,
  "lon": 82.7269874
},
{
  "type": "node",
  "id": 6216477854,
  "lat": 26.7795383,
  "lon": 82.7278085
},
{
  "type": "node",
  "id": 6216477855,
  "lat": 26.7776998,
  "lon": 82.7267795
},
{
  "type": "node",
  "id": 6216477856,
  "lat": 26.7776446,
  "lon": 82.7267158
},
{
  "type": "node",
  "id": 6216477857,
  "lat": 26.7776546,
  "lon": 82.7263101
},
{
  "type": "node",
  "id": 6216477858,
  "lat": 26.7777020,
  "lon": 82.7262617
},
{
  "type": "node",
  "id": 6216477861,
  "lat": 26.7794983,
  "lon": 82.7278550
},
{
  "type": "node",
  "id": 6216477868,
  "lat": 26.7795184,
  "lon": 82.7267414
},
{
  "type": "node",
  "id": 6216477869,
  "lat": 26.7794821,
  "lon": 82.7268143
},
{
  "type": "node",
  "id": 6965599742,
  "lat": 26.7672662,
  "lon": 83.3913964
},
{
  "type": "node",
  "id": 6965599743,
  "lat": 26.7680756,
  "lon": 83.3886820
},
{
  "type": "node",
  "id": 6965599744,
  "lat": 26.7705087,
  "lon": 83.3896047
},
{
  "type": "node",
  "id": 6965599745,
  "lat": 26.7696753,
  "lon": 83.3923083
},
{
  "type": "node",
  "id": 3353591366,
  "lat": 26.4815355,
  "lon": 83.7811053
},
{
  "type": "node",
  "id": 6271596026,
  "lat": 26.4819197,
  "lon": 83.7810382
},
{
  "type": "node",
  "id": 6271596027,
  "lat": 26.4794564,
  "lon": 83.7819421
},
{
  "type": "node",
  "id": 6271596028,
  "lat": 26.4807193,
  "lon": 83.7850213
},
{
  "type": "node",
  "id": 6271596029,
  "lat": 26.4826927,
  "lon": 83.7842864
},
{
  "type": "node",
  "id": 6271596030,
  "lat": 26.4823662,
  "lon": 83.7827897
},
{
  "type": "node",
  "id": 9713234945,
  "lat": 28.8382948,
  "lon": 81.7101154
},
{
  "type": "node",
  "id": 9713234946,
  "lat": 28.8383559,
  "lon": 81.7102039
},
{
  "type": "node",
  "id": 9713234971,
  "lat": 28.8379529,
  "lon": 81.7102616
},
{
  "type": "node",
  "id": 9713234972,
  "lat": 28.8380481,
  "lon": 81.7102052
},
{
  "type": "node",
  "id": 9713234973,
  "lat": 28.8381139,
  "lon": 81.7101127
},
{
  "type": "node",
  "id": 9713234974,
  "lat": 28.8381750,
  "lon": 81.7100376
},
{
  "type": "node",
  "id": 9713234975,
  "lat": 28.8382431,
  "lon": 81.7100711
},
{
  "type": "node",
  "id": 9713234947,
  "lat": 28.8384123,
  "lon": 81.7103581
},
{
  "type": "node",
  "id": 9713234948,
  "lat": 28.8384369,
  "lon": 81.7104533
},
{
  "type": "node",
  "id": 9713234949,
  "lat": 28.8384569,
  "lon": 81.7105767
},
{
  "type": "node",
  "id": 9713234950,
  "lat": 28.8384933,
  "lon": 81.7106907
},
{
  "type": "node",
  "id": 9713234951,
  "lat": 28.8385109,
  "lon": 81.7107765
},
{
  "type": "node",
  "id": 9713234952,
  "lat": 28.8384687,
  "lon": 81.7108838
},
{
  "type": "node",
  "id": 9713234953,
  "lat": 28.8384146,
  "lon": 81.7109241
},
{
  "type": "node",
  "id": 9713234954,
  "lat": 28.8383171,
  "lon": 81.7109804
},
{
  "type": "node",
  "id": 9713234955,
  "lat": 28.8382114,
  "lon": 81.7110018
},
{
  "type": "node",
  "id": 9713234956,
  "lat": 28.8381327,
  "lon": 81.7110354
},
{
  "type": "node",
  "id": 9713234957,
  "lat": 28.8380105,
  "lon": 81.7110890
},
{
  "type": "node",
  "id": 9713234958,
  "lat": 28.8379341,
  "lon": 81.7110917
},
{
  "type": "node",
  "id": 9713234959,
  "lat": 28.8378589,
  "lon": 81.7111158
},
{
  "type": "node",
  "id": 9713234960,
  "lat": 28.8377955,
  "lon": 81.7111534
},
{
  "type": "node",
  "id": 9713234961,
  "lat": 28.8377168,
  "lon": 81.7111588
},
{
  "type": "node",
  "id": 9713234962,
  "lat": 28.8376498,
  "lon": 81.7111547
},
{
  "type": "node",
  "id": 9713234963,
  "lat": 28.8376322,
  "lon": 81.7111158
},
{
  "type": "node",
  "id": 9713234964,
  "lat": 28.8376252,
  "lon": 81.7109603
},
{
  "type": "node",
  "id": 9713234965,
  "lat": 28.8376604,
  "lon": 81.7108382
},
{
  "type": "node",
  "id": 9713234966,
  "lat": 28.8376522,
  "lon": 81.7107108
},
{
  "type": "node",
  "id": 9713234967,
  "lat": 28.8376475,
  "lon": 81.7105271
},
{
  "type": "node",
  "id": 9713234968,
  "lat": 28.8376545,
  "lon": 81.7103541
},
{
  "type": "node",
  "id": 9713234969,
  "lat": 28.8376886,
  "lon": 81.7103380
},
{
  "type": "node",
  "id": 9713234970,
  "lat": 28.8378084,
  "lon": 81.7103085
},
{
  "type": "node",
  "id": 5860414984,
  "lat": 29.2685612,
  "lon": 82.1759478
},
{
  "type": "node",
  "id": 5860415885,
  "lat": 29.2682964,
  "lon": 82.1762799
},
{
  "type": "node",
  "id": 5860415886,
  "lat": 29.2684150,
  "lon": 82.1769376
},
{
  "type": "node",
  "id": 5860415887,
  "lat": 29.2686384,
  "lon": 82.1768947
},
{
  "type": "node",
  "id": 10095003699,
  "lat": 29.2684699,
  "lon": 82.1759503
},
{
  "type": "node",
  "id": 13018132506,
  "lat": 29.2686868,
  "lon": 82.1770076
},
{
  "type": "node",
  "id": 13018132507,
  "lat": 29.2687878,
  "lon": 82.1769803
},
{
  "type": "node",
  "id": 13018132508,
  "lat": 29.2686178,
  "lon": 82.1762929
},
{
  "type": "node",
  "id": 13018132509,
  "lat": 29.2687080,
  "lon": 82.1762863
},
{
  "type": "node",
  "id": 13018132510,
  "lat": 29.2687727,
  "lon": 82.1765051
},
{
  "type": "node",
  "id": 13018132511,
  "lat": 29.2687868,
  "lon": 82.1766456
},
{
  "type": "node",
  "id": 13018132512,
  "lat": 29.2687344,
  "lon": 82.1766998
},
{
  "type": "node",
  "id": 5065447521,
  "lat": 28.3054638,
  "lon": 82.6386382
},
{
  "type": "node",
  "id": 5065447522,
  "lat": 28.3052068,
  "lon": 82.6386912
},
{
  "type": "node",
  "id": 5065447523,
  "lat": 28.3052540,
  "lon": 82.6389861
},
{
  "type": "node",
  "id": 5065447524,
  "lat": 28.3055109,
  "lon": 82.6389331
},
{
  "type": "node",
  "id": 4314332714,
  "lat": 28.6301708,
  "lon": 82.4508903
},
{
  "type": "node",
  "id": 4314332715,
  "lat": 28.6303414,
  "lon": 82.4510834
},
{
  "type": "node",
  "id": 4314332716,
  "lat": 28.6301449,
  "lon": 82.4513088
},
{
  "type": "node",
  "id": 4314332717,
  "lat": 28.6299743,
  "lon": 82.4511156
},
{
  "type": "node",
  "id": 8607486286,
  "lat": 28.2115743,
  "lon": 83.6772749
},
{
  "type": "node",
  "id": 8607486287,
  "lat": 28.2113549,
  "lon": 83.6776120
},
{
  "type": "node",
  "id": 8607486288,
  "lat": 28.2103980,
  "lon": 83.6770751
},
{
  "type": "node",
  "id": 8607486289,
  "lat": 28.2107708,
  "lon": 83.6765394
},
{
  "type": "node",
  "id": 3548136421,
  "lat": 28.3391095,
  "lon": 83.5706760
},
{
  "type": "node",
  "id": 3548136422,
  "lat": 28.3392882,
  "lon": 83.5705837
},
{
  "type": "node",
  "id": 3548136423,
  "lat": 28.3396002,
  "lon": 83.5705481
},
{
  "type": "node",
  "id": 3548136424,
  "lat": 28.3396283,
  "lon": 83.5706826
},
{
  "type": "node",
  "id": 3548136427,
  "lat": 28.3396777,
  "lon": 83.5708042
},
{
  "type": "node",
  "id": 3548136428,
  "lat": 28.3397559,
  "lon": 83.5710152
},
{
  "type": "node",
  "id": 3548136435,
  "lat": 28.3386396,
  "lon": 83.5712953
},
{
  "type": "node",
  "id": 3548136436,
  "lat": 28.3389736,
  "lon": 83.5708310
},
{
  "type": "node",
  "id": 3548136430,
  "lat": 28.3397918,
  "lon": 83.5716444
},
{
  "type": "node",
  "id": 3548136431,
  "lat": 28.3397033,
  "lon": 83.5719622
},
{
  "type": "node",
  "id": 3548136432,
  "lat": 28.3389001,
  "lon": 83.5726554
},
{
  "type": "node",
  "id": 3548136433,
  "lat": 28.3387318,
  "lon": 83.5718447
},
{
  "type": "node",
  "id": 3548136434,
  "lat": 28.3385678,
  "lon": 83.5715873
},
{
  "type": "node",
  "id": 9471532215,
  "lat": 28.3390021,
  "lon": 83.5728210
},
{
  "type": "node",
  "id": 9471571859,
  "lat": 28.3391792,
  "lon": 83.5729229
},
{
  "type": "node",
  "id": 9471571860,
  "lat": 28.3390800,
  "lon": 83.5722309
},
{
  "type": "node",
  "id": 6154129055,
  "lat": 27.1346568,
  "lon": 84.0624368
},
{
  "type": "node",
  "id": 6154129056,
  "lat": 27.1347904,
  "lon": 84.0609187
},
{
  "type": "node",
  "id": 6154129053,
  "lat": 27.1355143,
  "lon": 84.0625322
},
{
  "type": "node",
  "id": 6154129054,
  "lat": 27.1356480,
  "lon": 84.0610140
},
{
  "type": "node",
  "id": 3576452936,
  "lat": 26.6238956,
  "lon": 84.9052780
},
{
  "type": "node",
  "id": 3576452938,
  "lat": 26.6242888,
  "lon": 84.9026443
},
{
  "type": "node",
  "id": 3576452939,
  "lat": 26.6263269,
  "lon": 84.9028696
},
{
  "type": "node",
  "id": 3576452940,
  "lat": 26.6262646,
  "lon": 84.9036743
},
{
  "type": "node",
  "id": 3576452945,
  "lat": 26.6263221,
  "lon": 84.9036796
},
{
  "type": "node",
  "id": 3576452953,
  "lat": 26.6262236,
  "lon": 84.9046439
},
{
  "type": "node",
  "id": 3576452954,
  "lat": 26.6262619,
  "lon": 84.9046493
},
{
  "type": "node",
  "id": 3576452959,
  "lat": 26.6253630,
  "lon": 84.9027891
},
{
  "type": "node",
  "id": 3576452961,
  "lat": 26.6261926,
  "lon": 84.9055033
},
{
  "type": "node",
  "id": 3576452962,
  "lat": 26.6261804,
  "lon": 84.9053788
},
{
  "type": "node",
  "id": 5341411652,
  "lat": 26.5637427,
  "lon": 85.5243212
},
{
  "type": "node",
  "id": 5341411653,
  "lat": 26.5638818,
  "lon": 85.5239403
},
{
  "type": "node",
  "id": 5341411654,
  "lat": 26.5635315,
  "lon": 85.5237633
},
{
  "type": "node",
  "id": 5341411655,
  "lat": 26.5638578,
  "lon": 85.5229855
},
{
  "type": "node",
  "id": 5341411656,
  "lat": 26.5640833,
  "lon": 85.5231088
},
{
  "type": "node",
  "id": 5341411657,
  "lat": 26.5641649,
  "lon": 85.5229533
},
{
  "type": "node",
  "id": 5341411658,
  "lat": 26.5662233,
  "lon": 85.5240208
},
{
  "type": "node",
  "id": 5341411651,
  "lat": 26.5645823,
  "lon": 85.5252439
},
{
  "type": "node",
  "id": 5341411659,
  "lat": 26.5654892,
  "lon": 85.5258232
},
{
  "type": "node",
  "id": 3685101161,
  "lat": 27.0054491,
  "lon": 84.8775157
},
{
  "type": "node",
  "id": 3685101162,
  "lat": 27.0052976,
  "lon": 84.8780279
},
{
  "type": "node",
  "id": 3685101163,
  "lat": 27.0061340,
  "lon": 84.8785468
},
{
  "type": "node",
  "id": 3685101164,
  "lat": 27.0064104,
  "lon": 84.8780395
},
{
  "type": "node",
  "id": 3685101165,
  "lat": 27.0059973,
  "lon": 84.8778308
},
{
  "type": "node",
  "id": 7927748584,
  "lat": 27.0057851,
  "lon": 84.8777372
},
{
  "type": "node",
  "id": 5065687679,
  "lat": 27.5749318,
  "lon": 84.7287263
},
{
  "type": "node",
  "id": 5065687680,
  "lat": 27.5753127,
  "lon": 84.7288540
},
{
  "type": "node",
  "id": 5065687681,
  "lat": 27.5751167,
  "lon": 84.7296199
},
{
  "type": "node",
  "id": 5065687682,
  "lat": 27.5746834,
  "lon": 84.7295546
},
{
  "type": "node",
  "id": 5065687683,
  "lat": 27.5748186,
  "lon": 84.7287045
},
{
  "type": "node",
  "id": 5065687684,
  "lat": 27.5748628,
  "lon": 84.7287108
},
{
  "type": "node",
  "id": 1496605710,
  "lat": 27.6628857,
  "lon": 85.3040226
},
{
  "type": "node",
  "id": 1496605724,
  "lat": 27.6636481,
  "lon": 85.3058955
},
{
  "type": "node",
  "id": 1496605729,
  "lat": 27.6626361,
  "lon": 85.3056540
},
{
  "type": "node",
  "id": 1496605739,
  "lat": 27.6639665,
  "lon": 85.3043792
},
{
  "type": "node",
  "id": 1496605751,
  "lat": 27.6630542,
  "lon": 85.3040858
},
{
  "type": "node",
  "id": 1496605761,
  "lat": 27.6631658,
  "lon": 85.3058573
},
{
  "type": "node",
  "id": 1496605769,
  "lat": 27.6625730,
  "lon": 85.3052758
},
{
  "type": "node",
  "id": 5168684923,
  "lat": 27.9106323,
  "lon": 84.8953098
},
{
  "type": "node",
  "id": 5168684924,
  "lat": 27.9105129,
  "lon": 84.8952796
},
{
  "type": "node",
  "id": 5168684925,
  "lat": 27.9105245,
  "lon": 84.8951880
},
{
  "type": "node",
  "id": 5168684927,
  "lat": 27.9102031,
  "lon": 84.8950912
},
{
  "type": "node",
  "id": 5170647289,
  "lat": 27.9107174,
  "lon": 84.8953257
},
{
  "type": "node",
  "id": 5168684921,
  "lat": 27.9107125,
  "lon": 84.8957368
},
{
  "type": "node",
  "id": 5168684922,
  "lat": 27.9107646,
  "lon": 84.8954038
},
{
  "type": "node",
  "id": 5168684930,
  "lat": 27.9100107,
  "lon": 84.8956276
},
{
  "type": "node",
  "id": 5168684932,
  "lat": 27.9101344,
  "lon": 84.8960662
},
{
  "type": "node",
  "id": 5168684933,
  "lat": 27.9103986,
  "lon": 84.8960383
},
{
  "type": "node",
  "id": 5168684934,
  "lat": 27.9106573,
  "lon": 84.8960900
},
{
  "type": "node",
  "id": 5170647288,
  "lat": 27.9107186,
  "lon": 84.8953955
},
{
  "type": "node",
  "id": 2824214079,
  "lat": 27.9188677,
  "lon": 85.1431302
},
{
  "type": "node",
  "id": 2824214080,
  "lat": 27.9191360,
  "lon": 85.1437098
},
{
  "type": "node",
  "id": 2824214081,
  "lat": 27.9186878,
  "lon": 85.1440721
},
{
  "type": "node",
  "id": 2824214082,
  "lat": 27.9183210,
  "lon": 85.1437346
},
{
  "type": "node",
  "id": 3489450000,
  "lat": 27.9183531,
  "lon": 85.1436025
},
{
  "type": "node",
  "id": 3489450006,
  "lat": 27.9186245,
  "lon": 85.1433238
},
{
  "type": "node",
  "id": 3502294613,
  "lat": 27.9187554,
  "lon": 85.1440175
},
{
  "type": "node",
  "id": 3502294615,
  "lat": 27.9189387,
  "lon": 85.1438693
},
{
  "type": "node",
  "id": 2105136774,
  "lat": 27.7057620,
  "lon": 85.3275637
},
{
  "type": "node",
  "id": 2105136777,
  "lat": 27.7058861,
  "lon": 85.3269389
},
{
  "type": "node",
  "id": 2105136804,
  "lat": 27.7065357,
  "lon": 85.3277599
},
{
  "type": "node",
  "id": 2105136813,
  "lat": 27.7066700,
  "lon": 85.3271398
},
{
  "type": "node",
  "id": 6790181876,
  "lat": 27.2005458,
  "lon": 85.9156748
},
{
  "type": "node",
  "id": 6790181877,
  "lat": 27.2005243,
  "lon": 85.9156397
},
{
  "type": "node",
  "id": 6790181878,
  "lat": 27.2005197,
  "lon": 85.9156378
},
{
  "type": "node",
  "id": 6790181879,
  "lat": 27.2005386,
  "lon": 85.9156936
},
{
  "type": "node",
  "id": 6790181880,
  "lat": 27.2005228,
  "lon": 85.9157043
},
{
  "type": "node",
  "id": 6790181881,
  "lat": 27.2005045,
  "lon": 85.9157027
},
{
  "type": "node",
  "id": 6790181882,
  "lat": 27.2004860,
  "lon": 85.9156751
},
{
  "type": "node",
  "id": 6790181883,
  "lat": 27.2004875,
  "lon": 85.9156602
},
{
  "type": "node",
  "id": 6790181884,
  "lat": 27.2004946,
  "lon": 85.9156474
},
{
  "type": "node",
  "id": 6790195294,
  "lat": 27.2004904,
  "lon": 85.9156894
},
{
  "type": "node",
  "id": 6790195295,
  "lat": 27.2005059,
  "lon": 85.9156394
},
{
  "type": "node",
  "id": 6790195340,
  "lat": 27.2005163,
  "lon": 85.9153731
},
{
  "type": "node",
  "id": 6790195341,
  "lat": 27.2007251,
  "lon": 85.9153652
},
{
  "type": "node",
  "id": 6790195339,
  "lat": 27.2007341,
  "lon": 85.9156676
},
{
  "type": "node",
  "id": 4287650975,
  "lat": 28.2043803,
  "lon": 83.9706451
},
{
  "type": "node",
  "id": 4287650977,
  "lat": 28.2044150,
  "lon": 83.9703049
},
{
  "type": "node",
  "id": 4287650981,
  "lat": 28.2049222,
  "lon": 83.9703405
},
{
  "type": "node",
  "id": 4287650969,
  "lat": 28.2041230,
  "lon": 83.9715902
},
{
  "type": "node",
  "id": 4287650980,
  "lat": 28.2048285,
  "lon": 83.9717720
},
{
  "type": "node",
  "id": 9556232759,
  "lat": 26.2544692,
  "lon": 88.1842000
},
{
  "type": "node",
  "id": 9556232773,
  "lat": 26.2532960,
  "lon": 88.1837680
},
{
  "type": "node",
  "id": 9556234268,
  "lat": 26.2544272,
  "lon": 88.1846575
},
{
  "type": "node",
  "id": 9556234274,
  "lat": 26.2539260,
  "lon": 88.1845899
},
{
  "type": "node",
  "id": 9556234276,
  "lat": 26.2538848,
  "lon": 88.1849439
},
{
  "type": "node",
  "id": 9556234286,
  "lat": 26.2531692,
  "lon": 88.1848846
},
{
  "type": "node",
  "id": 9556234289,
  "lat": 26.2531430,
  "lon": 88.1846210
},
{
  "type": "node",
  "id": 9558345694,
  "lat": 26.2544663,
  "lon": 88.1842352
},
{
  "type": "node",
  "id": 9764049490,
  "lat": 26.2533901,
  "lon": 88.1838273
},
{
  "type": "node",
  "id": 9764124635,
  "lat": 26.2532356,
  "lon": 88.1837295
},
{
  "type": "node",
  "id": 9764124636,
  "lat": 26.2531562,
  "lon": 88.1836571
},
{
  "type": "node",
  "id": 9764124638,
  "lat": 26.2529582,
  "lon": 88.1836101
},
{
  "type": "node",
  "id": 9764124640,
  "lat": 26.2527738,
  "lon": 88.1837035
},
{
  "type": "node",
  "id": 9764124641,
  "lat": 26.2526753,
  "lon": 88.1839008
},
{
  "type": "node",
  "id": 9764124654,
  "lat": 26.2527159,
  "lon": 88.1841511
},
{
  "type": "node",
  "id": 9764124656,
  "lat": 26.2525970,
  "lon": 88.1842616
},
{
  "type": "node",
  "id": 9764124663,
  "lat": 26.2529289,
  "lon": 88.1845703
},
{
  "type": "node",
  "id": 9764124680,
  "lat": 26.2529242,
  "lon": 88.1844469
},
{
  "type": "node",
  "id": 9764124683,
  "lat": 26.2526117,
  "lon": 88.1843459
},
{
  "type": "node",
  "id": 9764124684,
  "lat": 26.2526194,
  "lon": 88.1841943
},
{
  "type": "node",
  "id": 9764124686,
  "lat": 26.2527160,
  "lon": 88.1837854
},
{
  "type": "node",
  "id": 9764124687,
  "lat": 26.2528616,
  "lon": 88.1836396
},
{
  "type": "node",
  "id": 9764124688,
  "lat": 26.2530606,
  "lon": 88.1836159
},
{
  "type": "node",
  "id": 9764124703,
  "lat": 26.2529382,
  "lon": 88.1844951
},
{
  "type": "node",
  "id": 9764124705,
  "lat": 26.2529654,
  "lon": 88.1846197
},
{
  "type": "node",
  "id": 9764124709,
  "lat": 26.2526219,
  "lon": 88.1841932
},
{
  "type": "node",
  "id": 9764124710,
  "lat": 26.2526734,
  "lon": 88.1840118
},
{
  "type": "node",
  "id": 9804408967,
  "lat": 26.2544754,
  "lon": 88.1841602
},
{
  "type": "node",
  "id": 9804408973,
  "lat": 26.2544796,
  "lon": 88.1841323
},
{
  "type": "node",
  "id": 9804408977,
  "lat": 26.2544713,
  "lon": 88.1841869
},
{
  "type": "node",
  "id": 10207984111,
  "lat": 26.3461292,
  "lon": 92.6801552
},
{
  "type": "node",
  "id": 10207984112,
  "lat": 26.3439064,
  "lon": 92.6802192
},
{
  "type": "node",
  "id": 10207984107,
  "lat": 26.3440068,
  "lon": 92.6815261
},
{
  "type": "node",
  "id": 10207984108,
  "lat": 26.3452496,
  "lon": 92.6814087
},
{
  "type": "node",
  "id": 10207984109,
  "lat": 26.3452640,
  "lon": 92.6817075
},
{
  "type": "node",
  "id": 10207984110,
  "lat": 26.3462439,
  "lon": 92.6816274
},
{
  "type": "node",
  "id": 4332068652,
  "lat": 26.5744184,
  "lon": 88.0699142
},
{
  "type": "node",
  "id": 4332068653,
  "lat": 26.5739494,
  "lon": 88.0699500
},
{
  "type": "node",
  "id": 4332068654,
  "lat": 26.5739873,
  "lon": 88.0710280
},
{
  "type": "node",
  "id": 4332068655,
  "lat": 26.5744592,
  "lon": 88.0710117
},
{
  "type": "node",
  "id": 4332069304,
  "lat": 26.5739602,
  "lon": 88.0702566
},
{
  "type": "node",
  "id": 4332069305,
  "lat": 26.5744271,
  "lon": 88.0702334
},
{
  "type": "node",
  "id": 5026297759,
  "lat": 26.9188138,
  "lon": 87.9254374
},
{
  "type": "node",
  "id": 5026297760,
  "lat": 26.9187696,
  "lon": 87.9254709
},
{
  "type": "node",
  "id": 5026297761,
  "lat": 26.9187708,
  "lon": 87.9255500
},
{
  "type": "node",
  "id": 5026297762,
  "lat": 26.9188497,
  "lon": 87.9256520
},
{
  "type": "node",
  "id": 5026297763,
  "lat": 26.9186093,
  "lon": 87.9258947
},
{
  "type": "node",
  "id": 5026297764,
  "lat": 26.9182111,
  "lon": 87.9259135
},
{
  "type": "node",
  "id": 5026297765,
  "lat": 26.9181932,
  "lon": 87.9253140
},
{
  "type": "node",
  "id": 5026297766,
  "lat": 26.9188019,
  "lon": 87.9252711
},
{
  "type": "node",
  "id": 1315478866,
  "lat": 26.7021168,
  "lon": 88.4372427
},
{
  "type": "node",
  "id": 12548937804,
  "lat": 26.7026381,
  "lon": 88.4367201
},
{
  "type": "node",
  "id": 12548937805,
  "lat": 26.7024003,
  "lon": 88.4369789
},
{
  "type": "node",
  "id": 1315478887,
  "lat": 26.7028786,
  "lon": 88.4364230
},
{
  "type": "node",
  "id": 1315478958,
  "lat": 26.7034813,
  "lon": 88.4377594
},
{
  "type": "node",
  "id": 1315478965,
  "lat": 26.7035327,
  "lon": 88.4376432
},
{
  "type": "node",
  "id": 1315479027,
  "lat": 26.7038617,
  "lon": 88.4377053
},
{
  "type": "node",
  "id": 1315479033,
  "lat": 26.7039129,
  "lon": 88.4369031
},
{
  "type": "node",
  "id": 1315479052,
  "lat": 26.7039636,
  "lon": 88.4369441
},
{
  "type": "node",
  "id": 1315479056,
  "lat": 26.7039859,
  "lon": 88.4370024
},
{
  "type": "node",
  "id": 11472381866,
  "lat": 26.7035025,
  "lon": 88.4367201
},
{
  "type": "node",
  "id": 12548937799,
  "lat": 26.7038380,
  "lon": 88.4377219
},
{
  "type": "node",
  "id": 12548937800,
  "lat": 26.7038517,
  "lon": 88.4377165
},
{
  "type": "node",
  "id": 12548937801,
  "lat": 26.7039829,
  "lon": 88.4370439
},
{
  "type": "node",
  "id": 12548937802,
  "lat": 26.7039757,
  "lon": 88.4369678
},
{
  "type": "node",
  "id": 12548937803,
  "lat": 26.7039434,
  "lon": 88.4369226
},
{
  "type": "node",
  "id": 12571263272,
  "lat": 26.5316602,
  "lon": 88.7265542
},
{
  "type": "node",
  "id": 12571263273,
  "lat": 26.5316434,
  "lon": 88.7262672
},
{
  "type": "node",
  "id": 12571263274,
  "lat": 26.5311419,
  "lon": 88.7262404
},
{
  "type": "node",
  "id": 12571263275,
  "lat": 26.5310675,
  "lon": 88.7261277
},
{
  "type": "node",
  "id": 12571263276,
  "lat": 26.5310939,
  "lon": 88.7251139
},
{
  "type": "node",
  "id": 12571263277,
  "lat": 26.5310339,
  "lon": 88.7250388
},
{
  "type": "node",
  "id": 12571263278,
  "lat": 26.5310171,
  "lon": 88.7246123
},
{
  "type": "node",
  "id": 12571263279,
  "lat": 26.5309859,
  "lon": 88.7245694
},
{
  "type": "node",
  "id": 12571263280,
  "lat": 26.5310435,
  "lon": 88.7244514
},
{
  "type": "node",
  "id": 12571263281,
  "lat": 26.5307075,
  "lon": 88.7241536
},
{
  "type": "node",
  "id": 12571263282,
  "lat": 26.5313855,
  "lon": 88.7231921
},
{
  "type": "node",
  "id": 12571263283,
  "lat": 26.5319554,
  "lon": 88.7234831
},
{
  "type": "node",
  "id": 12571263284,
  "lat": 26.5320082,
  "lon": 88.7235045
},
{
  "type": "node",
  "id": 12571263285,
  "lat": 26.5320898,
  "lon": 88.7235126
},
{
  "type": "node",
  "id": 12571263298,
  "lat": 26.5321114,
  "lon": 88.7272677
},
{
  "type": "node",
  "id": 12571263286,
  "lat": 26.5323202,
  "lon": 88.7234804
},
{
  "type": "node",
  "id": 12571263287,
  "lat": 26.5326009,
  "lon": 88.7234187
},
{
  "type": "node",
  "id": 12571263288,
  "lat": 26.5326297,
  "lon": 88.7235448
},
{
  "type": "node",
  "id": 12571263289,
  "lat": 26.5328289,
  "lon": 88.7236682
},
{
  "type": "node",
  "id": 12571263290,
  "lat": 26.5328457,
  "lon": 88.7238747
},
{
  "type": "node",
  "id": 12571263291,
  "lat": 26.5331961,
  "lon": 88.7242717
},
{
  "type": "node",
  "id": 12571263292,
  "lat": 26.5331721,
  "lon": 88.7252104
},
{
  "type": "node",
  "id": 12571263293,
  "lat": 26.5334456,
  "lon": 88.7252775
},
{
  "type": "node",
  "id": 12571263294,
  "lat": 26.5332968,
  "lon": 88.7257227
},
{
  "type": "node",
  "id": 12571263295,
  "lat": 26.5334432,
  "lon": 88.7258273
},
{
  "type": "node",
  "id": 12571263296,
  "lat": 26.5337264,
  "lon": 88.7263584
},
{
  "type": "node",
  "id": 12571263297,
  "lat": 26.5336208,
  "lon": 88.7268171
},
{
  "type": "node",
  "id": 3560343540,
  "lat": 27.0431174,
  "lon": 88.2603777
},
{
  "type": "node",
  "id": 3560346974,
  "lat": 27.0431723,
  "lon": 88.2599141
},
{
  "type": "node",
  "id": 3560346975,
  "lat": 27.0433243,
  "lon": 88.2599369
},
{
  "type": "node",
  "id": 3560346976,
  "lat": 27.0433862,
  "lon": 88.2594155
},
{
  "type": "node",
  "id": 3439512608,
  "lat": 27.0435393,
  "lon": 88.2604408
},
{
  "type": "node",
  "id": 3439512614,
  "lat": 27.0436333,
  "lon": 88.2595117
},
{
  "type": "node",
  "id": 3560346969,
  "lat": 27.0438681,
  "lon": 88.2595468
},
{
  "type": "node",
  "id": 3560346970,
  "lat": 27.0438139,
  "lon": 88.2600045
},
{
  "type": "node",
  "id": 3560346971,
  "lat": 27.0437700,
  "lon": 88.2599980
},
{
  "type": "node",
  "id": 3560346972,
  "lat": 27.0437143,
  "lon": 88.2604669
},
{
  "type": "node",
  "id": 3560346979,
  "lat": 27.0436402,
  "lon": 88.2594535
},
{
  "type": "node",
  "id": 4902411768,
  "lat": 27.3586223,
  "lon": 87.6722614
},
{
  "type": "node",
  "id": 4902411770,
  "lat": 27.3585052,
  "lon": 87.6723683
},
{
  "type": "node",
  "id": 4902411771,
  "lat": 27.3585588,
  "lon": 87.6722302
},
{
  "type": "node",
  "id": 5022544101,
  "lat": 27.3589059,
  "lon": 87.6723916
},
{
  "type": "node",
  "id": 5022544102,
  "lat": 27.3584520,
  "lon": 87.6724937
},
{
  "type": "node",
  "id": 5022544103,
  "lat": 27.3588267,
  "lon": 87.6726644
},
{
  "type": "node",
  "id": 8890832396,
  "lat": 29.2516452,
  "lon": 88.8798897
},
{
  "type": "node",
  "id": 8890832397,
  "lat": 29.2515397,
  "lon": 88.8792462
},
{
  "type": "node",
  "id": 8890832398,
  "lat": 29.2522665,
  "lon": 88.8790896
},
{
  "type": "node",
  "id": 8890832399,
  "lat": 29.2523720,
  "lon": 88.8797332
},
{
  "type": "node",
  "id": 10169954105,
  "lat": 29.6865914,
  "lon": 89.0976787
},
{
  "type": "node",
  "id": 10169954106,
  "lat": 29.6862141,
  "lon": 89.0977564
},
{
  "type": "node",
  "id": 10169954107,
  "lat": 29.6862878,
  "lon": 89.0982305
},
{
  "type": "node",
  "id": 10169954108,
  "lat": 29.6866651,
  "lon": 89.0981528
},
{
  "type": "node",
  "id": 10135132623,
  "lat": 27.3475878,
  "lon": 91.5485003
},
{
  "type": "node",
  "id": 10135132624,
  "lat": 27.3477367,
  "lon": 91.5487618
},
{
  "type": "node",
  "id": 10135132625,
  "lat": 27.3479666,
  "lon": 91.5485848
},
{
  "type": "node",
  "id": 10135132626,
  "lat": 27.3481715,
  "lon": 91.5484655
},
{
  "type": "node",
  "id": 10135132627,
  "lat": 27.3480858,
  "lon": 91.5482321
},
{
  "type": "node",
  "id": 10135132628,
  "lat": 27.3478404,
  "lon": 91.5483622
},
{
  "type": "node",
  "id": 10135132629,
  "lat": 27.3478201,
  "lon": 91.5483367
},
{
  "type": "node",
  "id": 5622971580,
  "lat": 26.6217758,
  "lon": 92.8025973
},
{
  "type": "node",
  "id": 5622971581,
  "lat": 26.6217806,
  "lon": 92.8025329
},
{
  "type": "node",
  "id": 5622971582,
  "lat": 26.6203419,
  "lon": 92.8023398
},
{
  "type": "node",
  "id": 5622971583,
  "lat": 26.6202939,
  "lon": 92.8022432
},
{
  "type": "node",
  "id": 5622971584,
  "lat": 26.6204330,
  "lon": 92.8009665
},
{
  "type": "node",
  "id": 5622971585,
  "lat": 26.6225911,
  "lon": 92.8012508
},
{
  "type": "node",
  "id": 5622971586,
  "lat": 26.6226438,
  "lon": 92.8013205
},
{
  "type": "node",
  "id": 5622971587,
  "lat": 26.6225239,
  "lon": 92.8026938
},
{
  "type": "node",
  "id": 6270072145,
  "lat": 27.0760471,
  "lon": 93.6480532
},
{
  "type": "node",
  "id": 6270072146,
  "lat": 27.0745267,
  "lon": 93.6487322
},
{
  "type": "node",
  "id": 6270072147,
  "lat": 27.0744181,
  "lon": 93.6490127
},
{
  "type": "node",
  "id": 6270072148,
  "lat": 27.0744579,
  "lon": 93.6493298
},
{
  "type": "node",
  "id": 6270072149,
  "lat": 27.0749104,
  "lon": 93.6502364
},
{
  "type": "node",
  "id": 6270072150,
  "lat": 27.0751312,
  "lon": 93.6503015
},
{
  "type": "node",
  "id": 6270072151,
  "lat": 27.0757720,
  "lon": 93.6499274
},
{
  "type": "node",
  "id": 6270072152,
  "lat": 27.0758009,
  "lon": 93.6497120
},
{
  "type": "node",
  "id": 6270072153,
  "lat": 27.0756018,
  "lon": 93.6492892
},
{
  "type": "node",
  "id": 6270072154,
  "lat": 27.0762715,
  "lon": 93.6488623
},
{
  "type": "node",
  "id": 9761578294,
  "lat": 29.3516037,
  "lon": 90.7417213
},
{
  "type": "node",
  "id": 9761578295,
  "lat": 29.3515057,
  "lon": 90.7413393
},
{
  "type": "node",
  "id": 9761578296,
  "lat": 29.3519530,
  "lon": 90.7411882
},
{
  "type": "node",
  "id": 9761578297,
  "lat": 29.3520510,
  "lon": 90.7415702
},
{
  "type": "node",
  "id": 9045940656,
  "lat": 29.2917100,
  "lon": 91.0042560
},
{
  "type": "node",
  "id": 9045940657,
  "lat": 29.2913301,
  "lon": 91.0042543
},
{
  "type": "node",
  "id": 9045940658,
  "lat": 29.2913283,
  "lon": 91.0047724
},
{
  "type": "node",
  "id": 9045940659,
  "lat": 29.2917083,
  "lon": 91.0047741
},
{
  "type": "node",
  "id": 9322254862,
  "lat": 29.6142281,
  "lon": 90.9681938
},
{
  "type": "node",
  "id": 9322254863,
  "lat": 29.6146969,
  "lon": 90.9677964
},
{
  "type": "node",
  "id": 9322254864,
  "lat": 29.6143350,
  "lon": 90.9672666
},
{
  "type": "node",
  "id": 9322254865,
  "lat": 29.6137880,
  "lon": 90.9675693
},
{
  "type": "node",
  "id": 12170451177,
  "lat": 29.6343315,
  "lon": 91.1963710
},
{
  "type": "node",
  "id": 12170451178,
  "lat": 29.6339378,
  "lon": 91.1964092
},
{
  "type": "node",
  "id": 12170451179,
  "lat": 29.6340199,
  "lon": 91.1975310
},
{
  "type": "node",
  "id": 12170451180,
  "lat": 29.6344137,
  "lon": 91.1974928
},
{
  "type": "node",
  "id": 9106503658,
  "lat": 29.6776187,
  "lon": 91.1375981
},
{
  "type": "node",
  "id": 9106503659,
  "lat": 29.6775226,
  "lon": 91.1388232
},
{
  "type": "node",
  "id": 9718317160,
  "lat": 29.6775986,
  "lon": 91.1388420
},
{
  "type": "node",
  "id": 9106503660,
  "lat": 29.6797204,
  "lon": 91.1393661
},
{
  "type": "node",
  "id": 9106503661,
  "lat": 29.6794894,
  "lon": 91.1406597
},
{
  "type": "node",
  "id": 9106503663,
  "lat": 29.6812306,
  "lon": 91.1380531
},
{
  "type": "node",
  "id": 9106503664,
  "lat": 29.6787798,
  "lon": 91.1375745
},
{
  "type": "node",
  "id": 9106503665,
  "lat": 29.6786855,
  "lon": 91.1376179
},
{
  "type": "node",
  "id": 9718317168,
  "lat": 29.6800071,
  "lon": 91.1407955
},
{
  "type": "node",
  "id": 9106503662,
  "lat": 29.6805407,
  "lon": 91.1409355
},
{
  "type": "node",
  "id": 9106503650,
  "lat": 29.6844694,
  "lon": 91.1549491
},
{
  "type": "node",
  "id": 9106503651,
  "lat": 29.6845113,
  "lon": 91.1578241
},
{
  "type": "node",
  "id": 9106503652,
  "lat": 29.6855959,
  "lon": 91.1578349
},
{
  "type": "node",
  "id": 9106503653,
  "lat": 29.6856103,
  "lon": 91.1590311
},
{
  "type": "node",
  "id": 9106503654,
  "lat": 29.6870509,
  "lon": 91.1589569
},
{
  "type": "node",
  "id": 9106503655,
  "lat": 29.6870789,
  "lon": 91.1577680
},
{
  "type": "node",
  "id": 9106503656,
  "lat": 29.6869649,
  "lon": 91.1556156
},
{
  "type": "node",
  "id": 9106503657,
  "lat": 29.6869004,
  "lon": 91.1555083
},
{
  "type": "node",
  "id": 11892116904,
  "lat": 29.6908165,
  "lon": 91.1568541
},
{
  "type": "node",
  "id": 11892116907,
  "lat": 29.6907042,
  "lon": 91.1584223
},
{
  "type": "node",
  "id": 11892116912,
  "lat": 29.6907679,
  "lon": 91.1575337
},
{
  "type": "node",
  "id": 12175797673,
  "lat": 29.6850001,
  "lon": 91.1540493
},
{
  "type": "node",
  "id": 12175797674,
  "lat": 29.6854164,
  "lon": 91.1540676
},
{
  "type": "node",
  "id": 12175797675,
  "lat": 29.6853947,
  "lon": 91.1547220
},
{
  "type": "node",
  "id": 12175797676,
  "lat": 29.6849783,
  "lon": 91.1547036
},
{
  "type": "node",
  "id": 12175797715,
  "lat": 29.6869754,
  "lon": 91.1559398
},
{
  "type": "node",
  "id": 10017489623,
  "lat": 29.6570863,
  "lon": 91.1841350
},
{
  "type": "node",
  "id": 10017489625,
  "lat": 29.6582913,
  "lon": 91.1823372
},
{
  "type": "node",
  "id": 10017489626,
  "lat": 29.6572983,
  "lon": 91.1824445
},
{
  "type": "node",
  "id": 10017489624,
  "lat": 29.6584591,
  "lon": 91.1839465
},
{
  "type": "node",
  "id": 11892116905,
  "lat": 29.6916869,
  "lon": 91.1570067
},
{
  "type": "node",
  "id": 11892116906,
  "lat": 29.6916687,
  "lon": 91.1585292
},
{
  "type": "node",
  "id": 8995691692,
  "lat": 28.4114570,
  "lon": 92.4575832
},
{
  "type": "node",
  "id": 8995691693,
  "lat": 28.4110891,
  "lon": 92.4575422
},
{
  "type": "node",
  "id": 8995691694,
  "lat": 28.4110516,
  "lon": 92.4579768
},
{
  "type": "node",
  "id": 8995691695,
  "lat": 28.4114195,
  "lon": 92.4580179
},
{
  "type": "node",
  "id": 7972584683,
  "lat": 26.0815888,
  "lon": 94.2558312
},
{
  "type": "node",
  "id": 7972584684,
  "lat": 26.0803085,
  "lon": 94.2558805
},
{
  "type": "node",
  "id": 7972642285,
  "lat": 26.0801498,
  "lon": 94.2564926
},
{
  "type": "node",
  "id": 7972642286,
  "lat": 26.0816110,
  "lon": 94.2564392
},
{
  "type": "node",
  "id": 7037458904,
  "lat": 26.5305251,
  "lon": 93.9597271
},
{
  "type": "node",
  "id": 7037458905,
  "lat": 26.5302720,
  "lon": 93.9604835
},
{
  "type": "node",
  "id": 7037458906,
  "lat": 26.5307243,
  "lon": 93.9606685
},
{
  "type": "node",
  "id": 7037458907,
  "lat": 26.5309295,
  "lon": 93.9599537
},
{
  "type": "node",
  "id": 3637672668,
  "lat": 26.7298166,
  "lon": 94.1942733
},
{
  "type": "node",
  "id": 3637672819,
  "lat": 26.7310700,
  "lon": 94.1947795
},
{
  "type": "node",
  "id": 3637672636,
  "lat": 26.7290497,
  "lon": 94.1958625
},
{
  "type": "node",
  "id": 3637672644,
  "lat": 26.7292958,
  "lon": 94.1950166
},
{
  "type": "node",
  "id": 3637672646,
  "lat": 26.7293530,
  "lon": 94.1960291
},
{
  "type": "node",
  "id": 3637672653,
  "lat": 26.7294847,
  "lon": 94.1951064
},
{
  "type": "node",
  "id": 3637672804,
  "lat": 26.7306767,
  "lon": 94.1967176
},
{
  "type": "node",
  "id": 3637672814,
  "lat": 26.7309956,
  "lon": 94.1949077
},
{
  "type": "node",
  "id": 3637672844,
  "lat": 26.7314191,
  "lon": 94.1949333
},
{
  "type": "node",
  "id": 9214261763,
  "lat": 27.4864943,
  "lon": 94.9090387
},
{
  "type": "node",
  "id": 9214261771,
  "lat": 27.4848670,
  "lon": 94.9089467
},
{
  "type": "node",
  "id": 9214261772,
  "lat": 27.4862138,
  "lon": 94.9083540
},
{
  "type": "node",
  "id": 9214261764,
  "lat": 27.4860080,
  "lon": 94.9092493
},
{
  "type": "node",
  "id": 9214261765,
  "lat": 27.4860955,
  "lon": 94.9095129
},
{
  "type": "node",
  "id": 9214261766,
  "lat": 27.4859626,
  "lon": 94.9095906
},
{
  "type": "node",
  "id": 9214261767,
  "lat": 27.4862735,
  "lon": 94.9104169
},
{
  "type": "node",
  "id": 9214261768,
  "lat": 27.4856106,
  "lon": 94.9107116
},
{
  "type": "node",
  "id": 9214261769,
  "lat": 27.4855499,
  "lon": 94.9105588
},
{
  "type": "node",
  "id": 9214261770,
  "lat": 27.4854880,
  "lon": 94.9105936
},
{
  "type": "node",
  "id": 4662685216,
  "lat": 28.0561743,
  "lon": 95.3303276
},
{
  "type": "node",
  "id": 4662685217,
  "lat": 28.0559847,
  "lon": 95.3314342
},
{
  "type": "node",
  "id": 4662685218,
  "lat": 28.0555509,
  "lon": 95.3313325
},
{
  "type": "node",
  "id": 4662685219,
  "lat": 28.0557544,
  "lon": 95.3302402
},
{
  "type": "node",
  "id": 8293320302,
  "lat": 27.3577882,
  "lon": 97.3777973
},
{
  "type": "node",
  "id": 8293320303,
  "lat": 27.3576871,
  "lon": 97.3776672
},
{
  "type": "node",
  "id": 8293320304,
  "lat": 27.3575968,
  "lon": 97.3774802
},
{
  "type": "node",
  "id": 8293320305,
  "lat": 27.3575391,
  "lon": 97.3772647
},
{
  "type": "node",
  "id": 8293320306,
  "lat": 27.3575282,
  "lon": 97.3770126
},
{
  "type": "node",
  "id": 8293320308,
  "lat": 27.3575680,
  "lon": 97.3766996
},
{
  "type": "node",
  "id": 8293320310,
  "lat": 27.3577340,
  "lon": 97.3763500
},
{
  "type": "node",
  "id": 8293320311,
  "lat": 27.3578315,
  "lon": 97.3762199
},
{
  "type": "node",
  "id": 8293320312,
  "lat": 27.3580049,
  "lon": 97.3760898
},
{
  "type": "node",
  "id": 8293371518,
  "lat": 27.3579802,
  "lon": 97.3779348
},
{
  "type": "node",
  "id": 8293320299,
  "lat": 27.3585417,
  "lon": 97.3759420
},
{
  "type": "node",
  "id": 8293320300,
  "lat": 27.3585104,
  "lon": 97.3781225
},
{
  "type": "node",
  "id": 8293320301,
  "lat": 27.3581746,
  "lon": 97.3780615
},
{
  "type": "node",
  "id": 8293371566,
  "lat": 27.3582658,
  "lon": 97.3759906
},
{
  "type": "node",
  "id": 6034911557,
  "lat": 28.4701759,
  "lon": 98.9245926
},
{
  "type": "node",
  "id": 6034911558,
  "lat": 28.4695558,
  "lon": 98.9248260
},
{
  "type": "node",
  "id": 6034911559,
  "lat": 28.4703394,
  "lon": 98.9251551
},
{
  "type": "node",
  "id": 6034911560,
  "lat": 28.4697193,
  "lon": 98.9253885
},
{
  "type": "node",
  "id": 7956047188,
  "lat": 30.4801527,
  "lon": 91.0985470
},
{
  "type": "node",
  "id": 7956047189,
  "lat": 30.4795586,
  "lon": 91.0986033
},
{
  "type": "node",
  "id": 7956047190,
  "lat": 30.4794800,
  "lon": 91.0982010
},
{
  "type": "node",
  "id": 7956047191,
  "lat": 30.4801203,
  "lon": 91.0981581
},
{
  "type": "node",
  "id": 7955862012,
  "lat": 31.5372499,
  "lon": 92.0255603
},
{
  "type": "node",
  "id": 7955862010,
  "lat": 31.5379360,
  "lon": 92.0293941
},
{
  "type": "node",
  "id": 7955862011,
  "lat": 31.5389166,
  "lon": 92.0260888
},
{
  "type": "node",
  "id": 7955862013,
  "lat": 31.5363906,
  "lon": 92.0292355
},
{
  "type": "node",
  "id": 7955862014,
  "lat": 31.5365015,
  "lon": 92.0294063
},
{
  "type": "node",
  "id": 13474595198,
  "lat": 31.5384950,
  "lon": 92.0275099
},
{
  "type": "node",
  "id": 13474598601,
  "lat": 31.5365447,
  "lon": 92.0285765
},
{
  "type": "node",
  "id": 2453409419,
  "lat": 30.0104045,
  "lon": 95.6086959
},
{
  "type": "node",
  "id": 2453409421,
  "lat": 30.0121956,
  "lon": 95.6080654
},
{
  "type": "node",
  "id": 10836853366,
  "lat": 30.0106844,
  "lon": 95.6097564
},
{
  "type": "node",
  "id": 2453409420,
  "lat": 30.0109328,
  "lon": 95.6106976
},
{
  "type": "node",
  "id": 2453409422,
  "lat": 30.0127240,
  "lon": 95.6100671
},
{
  "type": "node",
  "id": 13140856138,
  "lat": 30.0126402,
  "lon": 95.6097499
},
{
  "type": "node",
  "id": 13140856152,
  "lat": 30.0124586,
  "lon": 95.6090618
},
{
  "type": "node",
  "id": 13140857032,
  "lat": 30.0674426,
  "lon": 95.5641006
},
{
  "type": "node",
  "id": 13140857031,
  "lat": 30.0679509,
  "lon": 95.5653609
},
{
  "type": "node",
  "id": 13140857033,
  "lat": 30.0661772,
  "lon": 95.5647819
},
{
  "type": "node",
  "id": 13140857034,
  "lat": 30.0666855,
  "lon": 95.5660422
},
{
  "type": "node",
  "id": 5147640023,
  "lat": 31.1481880,
  "lon": 97.1606938
},
{
  "type": "node",
  "id": 5147640024,
  "lat": 31.1480090,
  "lon": 97.1618495
},
{
  "type": "node",
  "id": 5147640025,
  "lat": 31.1479424,
  "lon": 97.1620990
},
{
  "type": "node",
  "id": 5147640026,
  "lat": 31.1478621,
  "lon": 97.1622848
},
{
  "type": "node",
  "id": 5147640027,
  "lat": 31.1477727,
  "lon": 97.1623892
},
{
  "type": "node",
  "id": 5147640028,
  "lat": 31.1477228,
  "lon": 97.1624706
},
{
  "type": "node",
  "id": 5147640029,
  "lat": 31.1476895,
  "lon": 97.1625874
},
{
  "type": "node",
  "id": 5147640030,
  "lat": 31.1476728,
  "lon": 97.1627485
},
{
  "type": "node",
  "id": 5147640031,
  "lat": 31.1476576,
  "lon": 97.1631307
},
{
  "type": "node",
  "id": 5147640032,
  "lat": 31.1476319,
  "lon": 97.1633696
},
{
  "type": "node",
  "id": 5147640034,
  "lat": 31.1467461,
  "lon": 97.1636245
},
{
  "type": "node",
  "id": 5147640035,
  "lat": 31.1468035,
  "lon": 97.1634528
},
{
  "type": "node",
  "id": 5147640036,
  "lat": 31.1465485,
  "lon": 97.1632263
},
{
  "type": "node",
  "id": 5147640037,
  "lat": 31.1475453,
  "lon": 97.1615752
},
{
  "type": "node",
  "id": 5147640038,
  "lat": 31.1477002,
  "lon": 97.1609397
},
{
  "type": "node",
  "id": 5147640039,
  "lat": 31.1479197,
  "lon": 97.1606826
},
{
  "type": "node",
  "id": 5147640033,
  "lat": 31.1474462,
  "lon": 97.1640483
},
{
  "type": "node",
  "id": 4236537489,
  "lat": 33.0180476,
  "lon": 96.9400317
},
{
  "type": "node",
  "id": 13471611758,
  "lat": 33.0195025,
  "lon": 96.9406988
},
{
  "type": "node",
  "id": 4236537486,
  "lat": 33.0199954,
  "lon": 96.9409249
},
{
  "type": "node",
  "id": 4236537487,
  "lat": 33.0194985,
  "lon": 96.9429991
},
{
  "type": "node",
  "id": 4236537488,
  "lat": 33.0170829,
  "lon": 96.9425734
},
{
  "type": "node",
  "id": 13471611729,
  "lat": 33.0194466,
  "lon": 96.9432110
},
{
  "type": "node",
  "id": 13471611759,
  "lat": 33.0188777,
  "lon": 96.9430575
},
{
  "type": "node",
  "id": 10068664854,
  "lat": 31.7469231,
  "lon": 98.5591217
},
{
  "type": "node",
  "id": 10068664855,
  "lat": 31.7463260,
  "lon": 98.5589631
},
{
  "type": "node",
  "id": 10068664856,
  "lat": 31.7458022,
  "lon": 98.5593074
},
{
  "type": "node",
  "id": 10068664857,
  "lat": 31.7456211,
  "lon": 98.5594387
},
{
  "type": "node",
  "id": 10068664858,
  "lat": 31.7452205,
  "lon": 98.5593527
},
{
  "type": "node",
  "id": 10068664860,
  "lat": 31.7446427,
  "lon": 98.5594659
},
{
  "type": "node",
  "id": 10068664865,
  "lat": 31.7462314,
  "lon": 98.5594076
},
{
  "type": "node",
  "id": 10068664859,
  "lat": 31.7451704,
  "lon": 98.5595928
},
{
  "type": "node",
  "id": 10068664861,
  "lat": 31.7445811,
  "lon": 98.5597015
},
{
  "type": "node",
  "id": 10068664862,
  "lat": 31.7457944,
  "lon": 98.5600140
},
{
  "type": "node",
  "id": 10068664863,
  "lat": 31.7459100,
  "lon": 98.5599868
},
{
  "type": "node",
  "id": 10068664864,
  "lat": 31.7467074,
  "lon": 98.5601816
},
{
  "type": "node",
  "id": 9265403508,
  "lat": 33.3676324,
  "lon": 97.1073764
},
{
  "type": "node",
  "id": 9265403506,
  "lat": 33.3681364,
  "lon": 97.1077505
},
{
  "type": "node",
  "id": 9265403507,
  "lat": 33.3677321,
  "lon": 97.1078681
},
{
  "type": "node",
  "id": 9265403509,
  "lat": 33.3680366,
  "lon": 97.1072589
},
{
  "type": "node",
  "id": 9265403450,
  "lat": 33.3872275,
  "lon": 97.1088225
},
{
  "type": "node",
  "id": 9265403451,
  "lat": 33.3869395,
  "lon": 97.1087371
},
{
  "type": "node",
  "id": 9265403452,
  "lat": 33.3868005,
  "lon": 97.1094098
},
{
  "type": "node",
  "id": 9265403453,
  "lat": 33.3870886,
  "lon": 97.1094952
},
{
  "type": "node",
  "id": 9265403469,
  "lat": 33.3871753,
  "lon": 97.1090754
},
{
  "type": "node",
  "id": 9265451670,
  "lat": 34.1501455,
  "lon": 95.8118422
},
{
  "type": "node",
  "id": 9265451671,
  "lat": 34.1495692,
  "lon": 95.8114380
},
{
  "type": "node",
  "id": 9265451672,
  "lat": 34.1492201,
  "lon": 95.8121647
},
{
  "type": "node",
  "id": 9265451673,
  "lat": 34.1497964,
  "lon": 95.8125689
}

  ]
}
